NCES_ID,State_ID,NCES_DisID,StatDis_ID,Low_Grade,High_Grade,Sch_Name,District,County,Street_Add,City,State,ZIP,ZIP_4digit,Phone,LocCode,Locale,Charter,Magnet,Titl1_Sch,Titl1_Wide,Students,Teachers,St_Tea_Rat,Free_Lunch,Red_Lunch,addLong,Latitude,Longitude,url
80336000305,CO-0880-0010,803360,CO-0880,9,12,ABRAHAM LINCOLN HIGH SCHOOL,School District No. 1 in the county of Denver and State of C,Denver County,2285 SOUTH FEDERAL BOULEVARD,DENVER,CO,80219,5400,(720)423-5000,11,City: Large,No,No,Yes,Yes,1393,88.02,15.8,1157,121,"2285 SOUTH FEDERAL BOULEVARD DENVER,CO,80219",39.676968,-105.025057,"http://www.mapquestapi.com/geocoding/v1/address?key=sz3qLEUYu1cJKXShzSazkXb6QtIOxAfH&location=2285+SOUTH+FEDERAL+BOULEVARD+DENVER,CO,80219"
80336001750,CO-0880-6397,803360,CO-0880,PK,6,ACADEMIA ANA MARIE SANDOVAL,School District No. 1 in the county of Denver and State of C,Denver County,3655 WYANDOT STREET,DENVER,CO,80211,2950,(720)424-4370,11,City: Large,No,No,No,?,427,23.25,18.4,106,29,"3655 WYANDOT STREET DENVER,CO,80211",39.76751,-105.014348,"http://www.mapquestapi.com/geocoding/v1/address?key=sz3qLEUYu1cJKXShzSazkXb6QtIOxAfH&location=3655+WYANDOT+STREET+DENVER,CO,80211"
80336006592,CO-0880-0099,803360,CO-0880,PK,5,ACADEMY 360,School District No. 1 in the county of Denver and State of C,Denver County,12000 E. 47TH AVE,DENVER,CO,80239,,(303)574-1360,11,City: Large,Yes,No,Yes,Yes,164,10.87,15.1,106,24,"12000 E. 47TH AVE DENVER,CO,80239",39.782382,-104.850357,"http://www.mapquestapi.com/geocoding/v1/address?key=sz3qLEUYu1cJKXShzSazkXb6QtIOxAfH&location=12000+E.+47TH+AVE+DENVER,CO,80239"
80336001894,CO-0880-0067,803360,CO-0880,9,12,ACADEMY OF URBAN LEARNING,School District No. 1 in the county of Denver and State of C,Denver County,2417 W. 29th Ave,DENVER,CO,80211,,(303)282-0900,11,City: Large,Yes,No,Yes,Yes,126,6.38,19.7,101,6,"2417 W. 29th Ave DENVER,CO,80211",39.758424,-105.017429,"http://www.mapquestapi.com/geocoding/v1/address?key=sz3qLEUYu1cJKXShzSazkXb6QtIOxAfH&location=2417+W.+29th+Ave+DENVER,CO,80211"
80336001764,CO-0880-1866,803360,CO-0880,8,10,ACE COMMUNITY CHALLENGE SCHOOL,School District No. 1 in the county of Denver and State of C,Denver County,948 SANTA FE DRIVE,DENVER,CO,80204,3937,(303)436-9588,11,City: Large,Yes,No,Yes,Yes,133,4.65,28.6,119,5,"948 SANTA FE DRIVE DENVER,CO,80204",39.731301,-104.998641,"http://www.mapquestapi.com/geocoding/v1/address?key=sz3qLEUYu1cJKXShzSazkXb6QtIOxAfH&location=948+SANTA+FE+DRIVE+DENVER,CO,80204"
80336000306,CO-0880-0220,803360,CO-0880,PK,5,AMESSE ELEMENTARY SCHOOL,School District No. 1 in the county of Denver and State of C,Denver County,5440 SCRANTON STREET,DENVER,CO,80239,3668,(720)424-9988,11,City: Large,No,No,Yes,Yes,558,33,16.9,479,50,"5440 SCRANTON STREET DENVER,CO,80239",39.794177,-104.84226,"http://www.mapquestapi.com/geocoding/v1/address?key=sz3qLEUYu1cJKXShzSazkXb6QtIOxAfH&location=5440+SCRANTON+STREET+DENVER,CO,80239"
80336000307,CO-0880-0388,803360,CO-0880,KG,5,ASBURY ELEMENTARY SCHOOL,School District No. 1 in the county of Denver and State of C,Denver County,1320 EAST ASBURY AVENUE,DENVER,CO,80210,4119,(720)424-9750,11,City: Large,No,No,No,?,347,23,15.1,108,23,"1320 EAST ASBURY AVENUE DENVER,CO,80210",39.680325,-104.971659,"http://www.mapquestapi.com/geocoding/v1/address?key=sz3qLEUYu1cJKXShzSazkXb6QtIOxAfH&location=1320+EAST+ASBURY+AVENUE+DENVER,CO,80210"
80336000309,CO-0880-0418,803360,CO-0880,PK,5,ASHLEY ELEMENTARY SCHOOL,School District No. 1 in the county of Denver and State of C,Denver County,1914 SYRACUSE STREET,DENVER,CO,80220,2018,(720)424-9748,11,City: Large,No,No,Yes,Yes,406,26.5,15.3,331,25,"1914 SYRACUSE STREET DENVER,CO,80220",39.746493,-104.898771,"http://www.mapquestapi.com/geocoding/v1/address?key=sz3qLEUYu1cJKXShzSazkXb6QtIOxAfH&location=1914+SYRACUSE+STREET+DENVER,CO,80220"
80336000311,CO-0880-0520,803360,CO-0880,PK,5,BARNUM ELEMENTARY SCHOOL,School District No. 1 in the county of Denver and State of C,Denver County,85 HOOKER STREET,DENVER,CO,80219,1444,(720)424-9590,11,City: Large,No,No,Yes,Yes,489,29.75,16.4,447,30,"85 HOOKER STREET DENVER,CO,80219",39.717355,-105.028797,"http://www.mapquestapi.com/geocoding/v1/address?key=sz3qLEUYu1cJKXShzSazkXb6QtIOxAfH&location=85+HOOKER+STREET+DENVER,CO,80219"
80336000313,CO-0880-0650,803360,CO-0880,PK,5,BEACH COURT ELEMENTARY SCHOOL,School District No. 1 in the county of Denver and State of C,Denver County,4950 BEACH COURT,DENVER,CO,80221,1208,(720)424-9470,11,City: Large,No,No,Yes,Yes,278,20.97,13.3,200,46,"4950 BEACH COURT DENVER,CO,80221",39.786526,-105.018161,"http://www.mapquestapi.com/geocoding/v1/address?key=sz3qLEUYu1cJKXShzSazkXb6QtIOxAfH&location=4950+BEACH+COURT+DENVER,CO,80221"
80336000317,CO-0880-0964,803360,CO-0880,PK,5,BRADLEY INTERNATIONAL SCHOOL,School District No. 1 in the county of Denver and State of C,Denver County,3051 SOUTH ELM STREET,DENVER,CO,80222,7339,(720)424-9468,11,City: Large,No,No,No,?,520,30.5,17,179,41,"3051 SOUTH ELM STREET DENVER,CO,80222",39.662525,-104.929466,"http://www.mapquestapi.com/geocoding/v1/address?key=sz3qLEUYu1cJKXShzSazkXb6QtIOxAfH&location=3051+SOUTH+ELM+STREET+DENVER,CO,80222"
80336000318,CO-0880-1056,803360,CO-0880,PK,5,BROMWELL ELEMENTARY SCHOOL,School District No. 1 in the county of Denver and State of C,Denver County,2500 EAST 4TH AVENUE,DENVER,CO,80206,4214,(720)424-9330,11,City: Large,No,No,No,?,320,19,16.8,16,4,"2500 EAST 4TH AVENUE DENVER,CO,80206",39.722554,-104.957316,"http://www.mapquestapi.com/geocoding/v1/address?key=sz3qLEUYu1cJKXShzSazkXb6QtIOxAfH&location=2500+EAST+4TH+AVENUE+DENVER,CO,80206"
80336000319,CO-0880-1076,803360,CO-0880,PK,5,BROWN INTERNATIONAL ACADEMY,School District No. 1 in the county of Denver and State of C,Denver County,2550 LOWELL BLVD,DENVER,CO,80211,4429,(720)424-9250,11,City: Large,No,No,No,?,605,35.34,17.1,205,39,"2550 LOWELL BLVD DENVER,CO,80211",39.75422,-105.034631,"http://www.mapquestapi.com/geocoding/v1/address?key=sz3qLEUYu1cJKXShzSazkXb6QtIOxAfH&location=2550+LOWELL+BLVD+DENVER,CO,80211"
80336001869,CO-0880-6350,803360,CO-0880,6,12,BRUCE RANDOLPH SCHOOL,School District No. 1 in the county of Denver and State of C,Denver County,3955 STEELE STREET,DENVER,CO,80205,3616,(720)424-1080,11,City: Large,No,No,Yes,Yes,824,62,13.3,725,63,"3955 STEELE STREET DENVER,CO,80205",39.771955,-104.949908,"http://www.mapquestapi.com/geocoding/v1/address?key=sz3qLEUYu1cJKXShzSazkXb6QtIOxAfH&location=3955+STEELE+STREET+DENVER,CO,80205"
80336000320,CO-0880-1106,803360,CO-0880,PK,8,BRYANT WEBSTER DUAL LANGUAGE ECE-8 SCHOOL,School District No. 1 in the county of Denver and State of C,Denver County,3635 QUIVAS ST,DENVER,CO,80211,3051,(720)424-9170,11,City: Large,No,No,Yes,Yes,413,29.98,13.8,311,43,"3635 QUIVAS ST DENVER,CO,80211",39.767427,-105.008015,"http://www.mapquestapi.com/geocoding/v1/address?key=sz3qLEUYu1cJKXShzSazkXb6QtIOxAfH&location=3635+QUIVAS+ST+DENVER,CO,80211"
80336000322,CO-0880-1319,803360,CO-0880,9,12,CAREER EDUCATION CENTER EARLY COLLEGE,School District No. 1 in the county of Denver and State of C,Denver County,2650 ELIOT STREET,DENVER,CO,80211,4711,(720)423-6600,11,City: Large,No,No,Yes,Yes,433,39.25,11,296,54,"2650 ELIOT STREET DENVER,CO,80211",39.755432,-105.023629,"http://www.mapquestapi.com/geocoding/v1/address?key=sz3qLEUYu1cJKXShzSazkXb6QtIOxAfH&location=2650+ELIOT+STREET+DENVER,CO,80211"
80336000323,CO-0880-1324,803360,CO-0880,PK,5,CARSON ELEMENTARY SCHOOL,School District No. 1 in the county of Denver and State of C,Denver County,5420 EAST 1ST AVENUE,DENVER,CO,80220,5801,(720)424-9090,11,City: Large,No,No,No,?,426,28.33,15,53,11,"5420 EAST 1ST AVENUE DENVER,CO,80220",39.71784,-104.92428,"http://www.mapquestapi.com/geocoding/v1/address?key=sz3qLEUYu1cJKXShzSazkXb6QtIOxAfH&location=5420+EAST+1ST+AVENUE+DENVER,CO,80220"
80336000424,CO-0880-9496,803360,CO-0880,KG,5,CASTRO ELEMENTARY SCHOOL,School District No. 1 in the county of Denver and State of C,Denver County,845 SOUTH LOWELL BOULEVARD,DENVER,CO,80219,3369,(720)424-8990,11,City: Large,No,No,Yes,Yes,528,37.5,14.1,480,35,"845 SOUTH LOWELL BOULEVARD DENVER,CO,80219",39.701236,-105.034466,"http://www.mapquestapi.com/geocoding/v1/address?key=sz3qLEUYu1cJKXShzSazkXb6QtIOxAfH&location=845+SOUTH+LOWELL+BOULEVARD+DENVER,CO,80219"
80336000324,CO-0880-1400,803360,CO-0880,PK,5,CENTENNIAL A SCHOOL FOR EXPEDITIONARY LEARNING,School District No. 1 in the county of Denver and State of C,Denver County,4665 RALEIGH STREET,DENVER,CO,80212,2560,(720)424-8900,11,City: Large,No,No,Yes,Yes,405,29.38,13.8,200,43,"4665 RALEIGH STREET DENVER,CO,80212",39.781168,-105.041605,"http://www.mapquestapi.com/geocoding/v1/address?key=sz3qLEUYu1cJKXShzSazkXb6QtIOxAfH&location=4665+RALEIGH+STREET+DENVER,CO,80212"
80336006449,CO-0880-1345,803360,CO-0880,KG,8,CESAR CHAVEZ ACADEMY DENVER,School District No. 1 in the county of Denver and State of C,Denver County,3752 TENNYSON STREET,DENVER,CO,80212,,(303)455-0848,11,City: Large,Yes,No,Yes,Yes,381,26.88,14.2,266,48,"3752 TENNYSON STREET DENVER,CO,80212",39.768502,-105.04405,"http://www.mapquestapi.com/geocoding/v1/address?key=sz3qLEUYu1cJKXShzSazkXb6QtIOxAfH&location=3752+TENNYSON+STREET+DENVER,CO,80212"
80336000400,CO-0880-7694,803360,CO-0880,KG,5,CHARLES M. SCHENCK (CMS) COMMUNITY SCHOOL,School District No. 1 in the county of Denver and State of C,Denver County,1300 SOUTH LOWELL BOULEVARD,DENVER,CO,80219,3844,(720)424-4300,11,City: Large,No,No,Yes,Yes,366,26.25,13.9,332,22,"1300 SOUTH LOWELL BOULEVARD DENVER,CO,80219",39.692185,-105.034392,"http://www.mapquestapi.com/geocoding/v1/address?key=sz3qLEUYu1cJKXShzSazkXb6QtIOxAfH&location=1300+SOUTH+LOWELL+BOULEVARD+DENVER,CO,80219"
80336000325,CO-0880-1528,803360,CO-0880,PK,5,CHELTENHAM ELEMENTARY SCHOOL,School District No. 1 in the county of Denver and State of C,Denver County,1580 JULIAN STREET,DENVER,CO,80204,1617,(720)424-8810,11,City: Large,No,No,Yes,Yes,439,33.48,13.1,418,14,"1580 JULIAN STREET DENVER,CO,80204",39.741562,-105.031515,"http://www.mapquestapi.com/geocoding/v1/address?key=sz3qLEUYu1cJKXShzSazkXb6QtIOxAfH&location=1580+JULIAN+STREET+DENVER,CO,80204"
80336006364,CO-0880-1785,803360,CO-0880,PK,5,COLE ARTS AND SCIENCE ACADEMY,School District No. 1 in the county of Denver and State of C,Denver County,3240 HUMBOLDT STREET,DENVER,CO,80205,3934,(720)423-9120,11,City: Large,No,No,Yes,Yes,535,38.9,13.8,460,32,"3240 HUMBOLDT STREET DENVER,CO,80205",39.76334,-104.969644,"http://www.mapquestapi.com/geocoding/v1/address?key=sz3qLEUYu1cJKXShzSazkXb6QtIOxAfH&location=3240+HUMBOLDT+STREET+DENVER,CO,80205"
80336000327,CO-0880-1774,803360,CO-0880,PK,5,COLFAX ELEMENTARY SCHOOL,School District No. 1 in the county of Denver and State of C,Denver County,1526 TENNYSON STREET,DENVER,CO,80204,1230,(720)424-8740,11,City: Large,No,No,Yes,Yes,344,20.5,16.8,298,22,"1526 TENNYSON STREET DENVER,CO,80204",39.740947,-105.04404,"http://www.mapquestapi.com/geocoding/v1/address?key=sz3qLEUYu1cJKXShzSazkXb6QtIOxAfH&location=1526+TENNYSON+STREET+DENVER,CO,80204"
80336000328,CO-0880-1788,803360,CO-0880,PK,5,COLLEGE VIEW ELEMENTARY SCHOOL,School District No. 1 in the county of Denver and State of C,Denver County,2675 SOUTH DECATUR STREET,DENVER,CO,80219,6036,(720)424-8660,11,City: Large,No,No,Yes,Yes,474,31.25,15.2,406,34,"2675 SOUTH DECATUR STREET DENVER,CO,80219",39.66827,-105.022732,"http://www.mapquestapi.com/geocoding/v1/address?key=sz3qLEUYu1cJKXShzSazkXb6QtIOxAfH&location=2675+SOUTH+DECATUR+STREET+DENVER,CO,80219"
80336006515,CO-0880-1295,803360,CO-0880,9,12,COLLEGIATE PREPARATORY ACADEMY,School District No. 1 in the county of Denver and State of C,Denver County,5290 KITTREDGE STREET,DENVER,CO,80239,,(720)423-0850,11,City: Large,No,No,Yes,Yes,413,24.17,17.1,262,35,"5290 KITTREDGE STREET DENVER,CO,80239",39.788336,-104.801989,"http://www.mapquestapi.com/geocoding/v1/address?key=sz3qLEUYu1cJKXShzSazkXb6QtIOxAfH&location=5290+KITTREDGE+STREET+DENVER,CO,80239"
80336001862,CO-0880-1748,803360,CO-0880,9,12,COLORADO HIGH SCHOOL CHARTER,School District No. 1 in the county of Denver and State of C,Denver County,1175 OSAGE STREET #100,DENVER,CO,80204,3443,(303)892-8475,11,City: Large,Yes,No,Yes,Yes,254,9.3,27.3,192,12,"1175 OSAGE STREET #100 DENVER,CO,80204",39.734649,-105.005263,"http://www.mapquestapi.com/geocoding/v1/address?key=sz3qLEUYu1cJKXShzSazkXb6QtIOxAfH&location=1175+OSAGE+STREET+#100+DENVER,CO,80204"
80336000329,CO-0880-1816,803360,CO-0880,PK,5,COLUMBIAN ELEMENTARY SCHOOL,School District No. 1 in the county of Denver and State of C,Denver County,2925 WEST 40TH AVENUE,DENVER,CO,80211,2076,(720)424-8580,11,City: Large,No,No,Yes,Yes,292,21,13.9,224,29,"2925 WEST 40TH AVENUE DENVER,CO,80211",39.772062,-105.024208,"http://www.mapquestapi.com/geocoding/v1/address?key=sz3qLEUYu1cJKXShzSazkXb6QtIOxAfH&location=2925+WEST+40TH+AVENUE+DENVER,CO,80211"
80336000330,CO-0880-1846,803360,CO-0880,PK,5,COLUMBINE ELEMENTARY SCHOOL,School District No. 1 in the county of Denver and State of C,Denver County,2540 EAST 29TH AVE,DENVER,CO,80205,4730,(720)424-8510,11,City: Large,No,No,Yes,Yes,240,20.73,11.6,199,13,"2540 EAST 29TH AVE DENVER,CO,80205",39.758228,-104.955862,"http://www.mapquestapi.com/geocoding/v1/address?key=sz3qLEUYu1cJKXShzSazkXb6QtIOxAfH&location=2540+EAST+29TH+AVE+DENVER,CO,80205"
80336006645,CO-0880-1939,803360,CO-0880,6,7,COMPASS ACADEMY,School District No. 1 in the county of Denver and State of C,Denver County,911 SOUTH HAZEL COURT,DENVER,CO,80219,,(303)226-4880,11,City: Large,Yes,No,Yes,Yes,122,7.47,16.3,113,6,"911 SOUTH HAZEL COURT DENVER,CO,80219",39.70018,-105.027423,"http://www.mapquestapi.com/geocoding/v1/address?key=sz3qLEUYu1cJKXShzSazkXb6QtIOxAfH&location=911+SOUTH+HAZEL+COURT+DENVER,CO,80219"
80336006583,CO-0880-1489,803360,CO-0880,9,12,COMPASSION ROAD ACADEMY,School District No. 1 in the county of Denver and State of C,Denver County,1000 CHEROKEE STREET,DENVER,CO,80204,,(720)424-2200,11,City: Large,No,No,Yes,Yes,157,11.63,13.5,100,12,"1000 CHEROKEE STREET DENVER,CO,80204",39.732077,-104.991643,"http://www.mapquestapi.com/geocoding/v1/address?key=sz3qLEUYu1cJKXShzSazkXb6QtIOxAfH&location=1000+CHEROKEE+STREET+DENVER,CO,80204"
80336000380,CO-0880-5844,803360,CO-0880,9,12,CONTEMPORARY LEARNING ACADEMY,School District No. 1 in the county of Denver and State of C,Denver County,200 E. 9TH AVE.,DENVER,CO,80203,3709,(720)423-6900,11,City: Large,No,No,Yes,Yes,167,19,8.8,119,8,"200 E. 9TH AVE. DENVER,CO,80203",39.730436,-104.984491,"http://www.mapquestapi.com/geocoding/v1/address?key=sz3qLEUYu1cJKXShzSazkXb6QtIOxAfH&location=200+E.+9TH+AVE.+DENVER,CO,80203"
80336000331,CO-0880-1908,803360,CO-0880,1,5,CORY ELEMENTARY SCHOOL,School District No. 1 in the county of Denver and State of C,Denver County,1550 SOUTH STEELE STREET,DENVER,CO,80210,2938,(720)424-8380,11,City: Large,No,No,No,?,382,21.5,17.8,38,13,"1550 SOUTH STEELE STREET DENVER,CO,80210",39.688428,-104.95003,"http://www.mapquestapi.com/geocoding/v1/address?key=sz3qLEUYu1cJKXShzSazkXb6QtIOxAfH&location=1550+SOUTH+STEELE+STREET+DENVER,CO,80210"
80336000332,CO-0880-1928,803360,CO-0880,PK,5,COWELL ELEMENTARY SCHOOL,School District No. 1 in the county of Denver and State of C,Denver County,4540 WEST 10TH AVENUE,DENVER,CO,80204,2913,(720)424-8300,11,City: Large,No,No,Yes,Yes,451,29.99,15,395,28,"4540 WEST 10TH AVENUE DENVER,CO,80204",39.733059,-105.045743,"http://www.mapquestapi.com/geocoding/v1/address?key=sz3qLEUYu1cJKXShzSazkXb6QtIOxAfH&location=4540+WEST+10TH+AVENUE+DENVER,CO,80204"
80336006559,CO-0880-3698,803360,CO-0880,KG,5,CREATIVITY CHALLENGE COMMUNITY,School District No. 1 in the county of Denver and State of C,Denver County,1551 S. MONROE ST,DENVER,CO,80210,,(720)424-0630,11,City: Large,No,No,No,?,279,16.1,17.3,30,7,"1551 S. MONROE ST DENVER,CO,80210",39.688391,-104.94537,"http://www.mapquestapi.com/geocoding/v1/address?key=sz3qLEUYu1cJKXShzSazkXb6QtIOxAfH&location=1551+S.+MONROE+ST+DENVER,CO,80210"
80336006521,CO-0880-2205,803360,CO-0880,PK,5,DCIS AT FORD,School District No. 1 in the county of Denver and State of C,Denver County,14500 MAXWELL PLACE,DENVER,CO,80239,,(720)424-7300,11,City: Large,No,No,Yes,Yes,500,31.5,15.9,418,45,"14500 MAXWELL PLACE DENVER,CO,80239",39.793019,-104.816684,"http://www.mapquestapi.com/geocoding/v1/address?key=sz3qLEUYu1cJKXShzSazkXb6QtIOxAfH&location=14500+MAXWELL+PLACE+DENVER,CO,80239"
80336006528,CO-0880-2209,803360,CO-0880,6,12,DCIS AT MONTBELLO,School District No. 1 in the county of Denver and State of C,Denver County,5000 CROWN BLVD,DENVER,CO,80239,,(720)423-5900,11,City: Large,No,No,Yes,Yes,864,60.46,14.3,714,58,"5000 CROWN BLVD DENVER,CO,80239",39.786827,-104.829472,"http://www.mapquestapi.com/geocoding/v1/address?key=sz3qLEUYu1cJKXShzSazkXb6QtIOxAfH&location=5000+CROWN+BLVD+DENVER,CO,80239"
80336001522,CO-0880-2174,803360,CO-0880,PK,6,DENISON MONTESSORI SCHOOL,School District No. 1 in the county of Denver and State of C,Denver County,1821 SOUTH YATES STREET,DENVER,CO,80219,4318,(720)424-8080,11,City: Large,No,No,No,?,408,24.5,16.7,170,72,"1821 SOUTH YATES STREET DENVER,CO,80219",39.683082,-105.050906,"http://www.mapquestapi.com/geocoding/v1/address?key=sz3qLEUYu1cJKXShzSazkXb6QtIOxAfH&location=1821+SOUTH+YATES+STREET+DENVER,CO,80219"
80336006516,CO-0880-2188,803360,CO-0880,6,12,DENVER CENTER FOR 21ST LEARNING AT WYMAN,School District No. 1 in the county of Denver and State of C,Denver County,1690 WILLIAMS STREET,DENVER,CO,80218,,(720)424-2980,11,City: Large,No,No,Yes,Yes,220,19.99,11,185,6,"1690 WILLIAMS STREET DENVER,CO,80218",39.742397,-104.965988,"http://www.mapquestapi.com/geocoding/v1/address?key=sz3qLEUYu1cJKXShzSazkXb6QtIOxAfH&location=1690+WILLIAMS+STREET+DENVER,CO,80218"
80336001917,CO-0880-2183,803360,CO-0880,6,12,DENVER CENTER FOR INTERNATIONAL STUDIES,School District No. 1 in the county of Denver and State of C,Denver County,574 WEST 6TH AVE,DENVER,CO,80204,5124,(720)423-9000,11,City: Large,No,Yes,No,?,739,38.97,19,349,60,"574 WEST 6TH AVE DENVER,CO,80204",39.725677,-104.993991,"http://www.mapquestapi.com/geocoding/v1/address?key=sz3qLEUYu1cJKXShzSazkXb6QtIOxAfH&location=574+WEST+6TH+AVE+DENVER,CO,80204"
80336006574,CO-0880-2129,803360,CO-0880,PK,5,DENVER CENTER FOR INTERNATIONAL STUDIES AT FAIRMON,School District No. 1 in the county of Denver and State of C,Denver County,520 WEST 3RD AVENUE,DENVER,CO,80223,,(720)424-7620,11,City: Large,No,No,Yes,Yes,420,31.05,13.5,254,37,"520 WEST 3RD AVENUE DENVER,CO,80223",39.720924,-104.994237,"http://www.mapquestapi.com/geocoding/v1/address?key=sz3qLEUYu1cJKXShzSazkXb6QtIOxAfH&location=520+WEST+3RD+AVENUE+DENVER,CO,80223"
80336006624,CO-0880-2227,803360,CO-0880,6,8,DENVER DISCOVERY SCHOOL,School District No. 1 in the county of Denver and State of C,Denver County,3480 SYRACUSE STREET,DENVER,CO,80238,,(720)424-4790,11,City: Large,No,No,No,?,253,17.4,14.5,73,7,"3480 SYRACUSE STREET DENVER,CO,80238",39.76411,-104.898895,"http://www.mapquestapi.com/geocoding/v1/address?key=sz3qLEUYu1cJKXShzSazkXb6QtIOxAfH&location=3480+SYRACUSE+STREET+DENVER,CO,80238"
80336006453,CO-0880-2125,803360,CO-0880,PK,8,DENVER GREEN SCHOOL,School District No. 1 in the county of Denver and State of C,Denver County,6700 EAST VIRGINIA AVENUE,DENVER,CO,80224,,(720)424-7480,11,City: Large,No,No,No,?,536,34.5,15.5,273,43,"6700 EAST VIRGINIA AVENUE DENVER,CO,80224",39.70748,-104.909065,"http://www.mapquestapi.com/geocoding/v1/address?key=sz3qLEUYu1cJKXShzSazkXb6QtIOxAfH&location=6700+EAST+VIRGINIA+AVENUE+DENVER,CO,80224"
80336006482,CO-0880-2127,803360,CO-0880,KG,8,DENVER LANGUAGE SCHOOL,School District No. 1 in the county of Denver and State of C,Denver County,451 NEWPORT STREET,DENVER,CO,80220,,(303)557-0852,11,City: Large,Yes,No,No,?,659,43.46,15.2,82,15,"451 NEWPORT STREET DENVER,CO,80220",39.722889,-104.909733,"http://www.mapquestapi.com/geocoding/v1/address?key=sz3qLEUYu1cJKXShzSazkXb6QtIOxAfH&location=451+NEWPORT+STREET+DENVER,CO,80220"
80336006568,CO-0880-2167,803360,CO-0880,7,10,DENVER MONTESSORI JUNIOR/SENIOR HIGH SCHOOL,School District No. 1 in the county of Denver and State of C,Denver County,4250 SHOSHONE STREET,DENVER,CO,80211,,(720)424-2600,11,City: Large,No,No,No,?,109,7.5,14.5,45,6,"4250 SHOSHONE STREET DENVER,CO,80211",39.774736,-105.009989,"http://www.mapquestapi.com/geocoding/v1/address?key=sz3qLEUYu1cJKXShzSazkXb6QtIOxAfH&location=4250+SHOSHONE+STREET+DENVER,CO,80211"
80336001955,CO-0880-6509,803360,CO-0880,9,12,DENVER ONLINE HIGH SCHOOL,School District No. 1 in the county of Denver and State of C,Denver County,4250 Shoshone St,DENVER,CO,80211,,(720)424-8281,11,City: Large,No,No,No,?,204,7.5,27.2,52,10,"4250 Shoshone St DENVER,CO,80211",39.774736,-105.009989,"http://www.mapquestapi.com/geocoding/v1/address?key=sz3qLEUYu1cJKXShzSazkXb6QtIOxAfH&location=4250+Shoshone+St+DENVER,CO,80211"
80336006640,CO-0880-2241,803360,CO-0880,9,10,DENVER SCHOOL OF INNOVATION AND SUSTAINABLE DESIGN,School District No. 1 in the county of Denver and State of C,Denver County,150 SOUTH PEARL STREET,DENVER,CO,80209,,(720)424-2000,11,City: Large,No,No,Yes,Yes,99,7,14.1,51,11,"150 SOUTH PEARL STREET DENVER,CO,80209",39.713819,-104.980403,"http://www.mapquestapi.com/geocoding/v1/address?key=sz3qLEUYu1cJKXShzSazkXb6QtIOxAfH&location=150+SOUTH+PEARL+STREET+DENVER,CO,80209"
80336001574,CO-0880-2184,803360,CO-0880,6,12,DENVER SCHOOL OF THE ARTS,School District No. 1 in the county of Denver and State of C,Denver County,7111 MONTVIEW BLVD,DENVER,CO,80220,1867,(720)424-1700,11,City: Large,No,No,No,?,1089,50.63,21.5,88,37,"7111 MONTVIEW BLVD DENVER,CO,80220",39.747435,-104.905209,"http://www.mapquestapi.com/geocoding/v1/address?key=sz3qLEUYu1cJKXShzSazkXb6QtIOxAfH&location=7111+MONTVIEW+BLVD+DENVER,CO,80220"
80336000385,CO-0880-6088,803360,CO-0880,PK,8,DORA MOORE ECE-8 SCHOOL,School District No. 1 in the county of Denver and State of C,Denver County,846 CORONA STREET,DENVER,CO,80218,3411,(720)424-5300,11,City: Large,No,No,Yes,Yes,383,27.9,13.7,254,31,"846 CORONA STREET DENVER,CO,80218",39.729746,-104.974073,"http://www.mapquestapi.com/geocoding/v1/address?key=sz3qLEUYu1cJKXShzSazkXb6QtIOxAfH&location=846+CORONA+STREET+DENVER,CO,80218"
80336000336,CO-0880-2258,803360,CO-0880,PK,5,DOULL ELEMENTARY SCHOOL,School District No. 1 in the county of Denver and State of C,Denver County,2520 SOUTH UTICA STREET,DENVER,CO,80219,5639,(720)424-8000,11,City: Large,No,No,Yes,Yes,511,37,13.8,417,38,"2520 SOUTH UTICA STREET DENVER,CO,80219",39.672981,-105.044972,"http://www.mapquestapi.com/geocoding/v1/address?key=sz3qLEUYu1cJKXShzSazkXb6QtIOxAfH&location=2520+SOUTH+UTICA+STREET+DENVER,CO,80219"
80336006584,CO-0880-2207,803360,CO-0880,KG,5,DOWNTOWN DENVER EXPEDITIONARY SCHOOL,School District No. 1 in the county of Denver and State of C,Denver County,1860 LINCOLN ST,DENVER,CO,80203,,(720)424-2350,11,City: Large,Yes,No,No,?,359,18.37,19.5,87,21,"1860 LINCOLN ST DENVER,CO,80203",39.74575,-104.986106,"http://www.mapquestapi.com/geocoding/v1/address?key=sz3qLEUYu1cJKXShzSazkXb6QtIOxAfH&location=1860+LINCOLN+ST+DENVER,CO,80203"
80336001406,CO-0880-5605,803360,CO-0880,6,12,DR. MARTIN LUTHER KING JR. EARLY COLLEGE,School District No. 1 in the county of Denver and State of C,Denver County,19535 EAST 46TH AVENUE,DENVER,CO,80249,6637,(720)424-0420,11,City: Large,No,No,Yes,Yes,1108,66.56,16.6,760,136,"19535 EAST 46TH AVENUE DENVER,CO,80249",39.780035,-104.761113,"http://www.mapquestapi.com/geocoding/v1/address?key=sz3qLEUYu1cJKXShzSazkXb6QtIOxAfH&location=19535+EAST+46TH+AVENUE+DENVER,CO,80249"
80336006658,CO-0880-2244,803360,CO-0880,9,10,DSST COLLEGE VIEW HIGH SCHOOL,School District No. 1 in the county of Denver and State of C,Denver County,3111 WEST DARTMOUTH AVENUE,DENVER,CO,80236,,(303)524-6320,11,City: Large,Yes,No,Yes,Yes,138,10.42,13.2,103,14,"3111 WEST DARTMOUTH AVENUE DENVER,CO,80236",39.660352,-105.032793,"http://www.mapquestapi.com/geocoding/v1/address?key=sz3qLEUYu1cJKXShzSazkXb6QtIOxAfH&location=3111+WEST+DARTMOUTH+AVENUE+DENVER,CO,80236"
80336006572,CO-0880-2186,803360,CO-0880,6,8,DSST: BYERS MIDDLE SCHOOL,School District No. 1 in the county of Denver and State of C,Denver County,150 S. Pearl St.,DENVER,CO,80203,,(303)524-6350,11,City: Large,Yes,No,No,?,448,31.96,14,122,43,"150 S. Pearl St. DENVER,CO,80203",39.713819,-104.980403,"http://www.mapquestapi.com/geocoding/v1/address?key=sz3qLEUYu1cJKXShzSazkXb6QtIOxAfH&location=150+S.+Pearl+St.+DENVER,CO,80203"
80336006636,CO-0880-2175,803360,CO-0880,9,11,DSST: COLE HIGH SCHOOL,School District No. 1 in the county of Denver and State of C,Denver County,3240 HUMBOLDT STREET,DENVER,CO,80205,,(720)524-6354,11,City: Large,Yes,No,Yes,Yes,281,19.91,14.1,184,29,"3240 HUMBOLDT STREET DENVER,CO,80205",39.76334,-104.969644,"http://www.mapquestapi.com/geocoding/v1/address?key=sz3qLEUYu1cJKXShzSazkXb6QtIOxAfH&location=3240+HUMBOLDT+STREET+DENVER,CO,80205"
80336006523,CO-0880-2223,803360,CO-0880,6,8,DSST: COLE MIDDLE SCHOOL,School District No. 1 in the county of Denver and State of C,Denver County,1350 E. 33rd Ave,DENVER,CO,80205,,(303)524-6354,11,City: Large,Yes,No,Yes,Yes,440,35.93,12.2,336,44,"1350 E. 33rd Ave DENVER,CO,80205",39.763255,-104.97149,"http://www.mapquestapi.com/geocoding/v1/address?key=sz3qLEUYu1cJKXShzSazkXb6QtIOxAfH&location=1350+E.+33rd+Ave+DENVER,CO,80205"
80336006554,CO-0880-4381,803360,CO-0880,6,8,DSST: COLLEGE VIEW MIDDLE SCHOOL,School District No. 1 in the county of Denver and State of C,Denver County,3111 W Dartmouth Ave,DENVER,CO,80236,,(303)524-6320,11,City: Large,Yes,No,Yes,Yes,450,37.21,12.1,337,67,"3111 W Dartmouth Ave DENVER,CO,80236",39.660352,-105.032793,"http://www.mapquestapi.com/geocoding/v1/address?key=sz3qLEUYu1cJKXShzSazkXb6QtIOxAfH&location=3111+W+Dartmouth+Ave+DENVER,CO,80236"
80336006618,CO-0880-2218,803360,CO-0880,6,8,DSST: CONSERVATORY GREEN MIDDLE SCHOOL,School District No. 1 in the county of Denver and State of C,Denver County,8499 EAST STOLL PLACE,DENVER,CO,80238,,(303)802-4120,41,Rural: Fringe,Yes,No,No,?,298,18.74,15.9,146,15,"8499 EAST STOLL PLACE DENVER,CO,80238",39.789031,-104.889389,"http://www.mapquestapi.com/geocoding/v1/address?key=sz3qLEUYu1cJKXShzSazkXb6QtIOxAfH&location=8499+EAST+STOLL+PLACE+DENVER,CO,80238"
80336006450,CO-0880-2145,803360,CO-0880,9,12,DSST: GREEN VALLEY RANCH HIGH SCHOOL,School District No. 1 in the county of Denver and State of C,Denver County,4800 TELLURIDE STREET #2,DENVER,CO,80249,,(303)524-6300,11,City: Large,Yes,No,Yes,Yes,518,37.81,13.7,285,79,"4800 TELLURIDE STREET #2 DENVER,CO,80249",39.785651,-104.781664,"http://www.mapquestapi.com/geocoding/v1/address?key=sz3qLEUYu1cJKXShzSazkXb6QtIOxAfH&location=4800+TELLURIDE+STREET+#2+DENVER,CO,80249"
80336006546,CO-0880-2181,803360,CO-0880,6,8,DSST: GREEN VALLEY RANCH MIDDLE SCHOOL,School District No. 1 in the county of Denver and State of C,Denver County,4800 TELLURIDE STREET BUILDING,DENVER,CO,80249,,(303)524-6300,11,City: Large,Yes,No,Yes,Yes,455,30.72,14.8,261,90,"4800 TELLURIDE STREET BUILDING DENVER,CO,80249",39.785651,-104.781664,"http://www.mapquestapi.com/geocoding/v1/address?key=sz3qLEUYu1cJKXShzSazkXb6QtIOxAfH&location=4800+TELLURIDE+STREET+BUILDING+DENVER,CO,80249"
80336001833,CO-0880-2185,803360,CO-0880,9,12,DSST: STAPLETON HIGH SCHOOL,School District No. 1 in the county of Denver and State of C,Denver County,2000 VALENTIA STREET,DENVER,CO,80238,,(303)320-5570,11,City: Large,Yes,No,No,?,523,38.6,13.5,215,62,"2000 VALENTIA STREET DENVER,CO,80238",39.748373,-104.891672,"http://www.mapquestapi.com/geocoding/v1/address?key=sz3qLEUYu1cJKXShzSazkXb6QtIOxAfH&location=2000+VALENTIA+STREET+DENVER,CO,80238"
80336006566,CO-0880-2115,803360,CO-0880,6,8,DSST: STAPLETON MIDDLE SCHOOL,School District No. 1 in the county of Denver and State of C,Denver County,2000 VALENTIA STREET,DENVER,CO,80238,,(303)320-5570,11,City: Large,Yes,No,No,?,458,32.39,14.1,238,39,"2000 VALENTIA STREET DENVER,CO,80238",39.748373,-104.891672,"http://www.mapquestapi.com/geocoding/v1/address?key=sz3qLEUYu1cJKXShzSazkXb6QtIOxAfH&location=2000+VALENTIA+STREET+DENVER,CO,80238"
80336000337,CO-0880-2364,803360,CO-0880,PK,5,EAGLETON ELEMENTARY SCHOOL,School District No. 1 in the county of Denver and State of C,Denver County,880 HOOKER STREET,DENVER,CO,80204,3237,(720)424-7930,11,City: Large,No,No,Yes,Yes,441,27.75,15.9,384,33,"880 HOOKER STREET DENVER,CO,80204",39.730245,-105.028672,"http://www.mapquestapi.com/geocoding/v1/address?key=sz3qLEUYu1cJKXShzSazkXb6QtIOxAfH&location=880+HOOKER+STREET+DENVER,CO,80204"
80654000032,CO-0123-7843,806540,CO-0123,PK,PK,EARLY CHILDHOOD EDUCATION CENTER,Sheridan School District No. 2,Denver County,4000 SOUTH LOWELL BOULEVARD,ENGLEWOOD,CO,80150,1198,(720)833-6991,11,City: Large,No,No,No,?,161,10.34,15.6,46,3,"4000 SOUTH LOWELL BOULEVARD ENGLEWOOD,CO,80150",39.638373,-105.034723,"http://www.mapquestapi.com/geocoding/v1/address?key=sz3qLEUYu1cJKXShzSazkXb6QtIOxAfH&location=4000+SOUTH+LOWELL+BOULEVARD+ENGLEWOOD,CO,80150"
80336000338,CO-0880-2398,803360,CO-0880,9,12,EAST HIGH SCHOOL,School District No. 1 in the county of Denver and State of C,Denver County,1600 CITY PARK ESPLANADE,DENVER,CO,80206,1429,(720)423-8300,11,City: Large,No,No,No,?,2471,129.13,19.1,737,115,"1600 CITY PARK ESPLANADE DENVER,CO,80206",39.742121,-104.956712,"http://www.mapquestapi.com/geocoding/v1/address?key=sz3qLEUYu1cJKXShzSazkXb6QtIOxAfH&location=1600+CITY+PARK+ESPLANADE+DENVER,CO,80206"
80336000340,CO-0880-2506,803360,CO-0880,PK,5,EDISON ELEMENTARY SCHOOL,School District No. 1 in the county of Denver and State of C,Denver County,3350 QUITMAN STREET,DENVER,CO,80212,1736,(720)424-7780,11,City: Large,No,No,No,?,563,34.25,16.4,145,26,"3350 QUITMAN STREET DENVER,CO,80212",39.764872,-105.040448,"http://www.mapquestapi.com/geocoding/v1/address?key=sz3qLEUYu1cJKXShzSazkXb6QtIOxAfH&location=3350+QUITMAN+STREET+DENVER,CO,80212"
80336000341,CO-0880-2652,803360,CO-0880,PK,5,ELLIS ELEMENTARY SCHOOL,School District No. 1 in the county of Denver and State of C,Denver County,1651 SOUTH DAHLIA STREET,DENVER,CO,80222,3817,(720)424-7700,11,City: Large,No,No,Yes,Yes,514,37.75,13.6,391,47,"1651 SOUTH DAHLIA STREET DENVER,CO,80222",39.68661,-104.931684,"http://www.mapquestapi.com/geocoding/v1/address?key=sz3qLEUYu1cJKXShzSazkXb6QtIOxAfH&location=1651+SOUTH+DAHLIA+STREET+DENVER,CO,80222"
80336000345,CO-0880-2726,803360,CO-0880,9,12,EMILY GRIFFITH HIGH SCHOOL,School District No. 1 in the county of Denver and State of C,Denver County,1860 LINCOLN ST,DENVER,CO,80203,2197,(720)423-4901,11,City: Large,No,No,No,?,391,17.19,22.7,189,18,"1860 LINCOLN ST DENVER,CO,80203",39.74575,-104.986106,"http://www.mapquestapi.com/geocoding/v1/address?key=sz3qLEUYu1cJKXShzSazkXb6QtIOxAfH&location=1860+LINCOLN+ST+DENVER,CO,80203"
80336006522,CO-0880-2349,803360,CO-0880,PK,KG,ESCALANTE-BIGGS ACADEMY,School District No. 1 in the county of Denver and State of C,Denver County,5300 CROWN BLVD,DENVER,CO,80239,,(720)424-4620,11,City: Large,No,No,Yes,Yes,377,23,16.4,272,43,"5300 CROWN BLVD DENVER,CO,80239",39.791445,-104.824191,"http://www.mapquestapi.com/geocoding/v1/address?key=sz3qLEUYu1cJKXShzSazkXb6QtIOxAfH&location=5300+CROWN+BLVD+DENVER,CO,80239"
80336006599,CO-0880-2641,803360,CO-0880,9,12,EXCEL ACADEMY,School District No. 1 in the county of Denver and State of C,Denver County,1825 S. Federal Blvd.,DENVER,CO,80219,,(720)424-2250,11,City: Large,No,No,Yes,Yes,216,15,14.4,174,15,"1825 S. Federal Blvd. DENVER,CO,80219",39.684213,-105.025039,"http://www.mapquestapi.com/geocoding/v1/address?key=sz3qLEUYu1cJKXShzSazkXb6QtIOxAfH&location=1825+S.+Federal+Blvd.+DENVER,CO,80219"
80336000347,CO-0880-2880,803360,CO-0880,PK,5,FAIRVIEW ELEMENTARY SCHOOL,School District No. 1 in the county of Denver and State of C,Denver County,2715 WEST 11TH AVENUE,DENVER,CO,80204,3312,(720)424-7540,11,City: Large,No,No,Yes,Yes,227,22.85,9.9,222,3,"2715 WEST 11TH AVENUE DENVER,CO,80204",39.733889,-105.020494,"http://www.mapquestapi.com/geocoding/v1/address?key=sz3qLEUYu1cJKXShzSazkXb6QtIOxAfH&location=2715+WEST+11TH+AVENUE+DENVER,CO,80204"
80336001928,CO-0880-4140,803360,CO-0880,PK,8,FARRELL B. HOWELL ECE-8 SCHOOL,School District No. 1 in the county of Denver and State of C,Denver County,14250 EAST ALBROOK DRIVE,DENVER,CO,80239,,(720)424-2740,11,City: Large,No,Yes,Yes,Yes,866,54.87,15.8,700,92,"14250 EAST ALBROOK DRIVE DENVER,CO,80239",39.776884,-104.832422,"http://www.mapquestapi.com/geocoding/v1/address?key=sz3qLEUYu1cJKXShzSazkXb6QtIOxAfH&location=14250+EAST+ALBROOK+DRIVE+DENVER,CO,80239"
80336001575,CO-0880-3000,803360,CO-0880,9,12,FLORENCE CRITTENTON HIGH SCHOOL,School District No. 1 in the county of Denver and State of C,Denver County,55 SOUTH ZUNI,DENVER,CO,80223,,(720)423-7900,11,City: Large,No,No,Yes,Yes,120,13.02,9.2,102,3,"55 SOUTH ZUNI DENVER,CO,80223",39.715425,-105.015676,"http://www.mapquestapi.com/geocoding/v1/address?key=sz3qLEUYu1cJKXShzSazkXb6QtIOxAfH&location=55+SOUTH+ZUNI+DENVER,CO,80223"
80336001933,CO-0880-6970,803360,CO-0880,PK,8,FLORIDA PITT-WALLER ECE-8 SCHOOL,School District No. 1 in the county of Denver and State of C,Denver County,21601 EAST 51ST PLACE,DENVER,CO,80249,,(720)424-2840,11,City: Large,No,No,Yes,Yes,892,51.49,17.3,582,108,"21601 EAST 51ST PLACE DENVER,CO,80249",39.789118,-104.73771,"http://www.mapquestapi.com/geocoding/v1/address?key=sz3qLEUYu1cJKXShzSazkXb6QtIOxAfH&location=21601+EAST+51ST+PLACE+DENVER,CO,80249"
80336000349,CO-0880-3032,803360,CO-0880,PK,5,FORCE ELEMENTARY SCHOOL,School District No. 1 in the county of Denver and State of C,Denver County,1550 SOUTH WOLFF STREET,DENVER,CO,80219,1147,(720)424-7400,11,City: Large,No,No,Yes,Yes,585,34.74,16.8,494,56,"1550 SOUTH WOLFF STREET DENVER,CO,80219",39.688832,-105.047996,"http://www.mapquestapi.com/geocoding/v1/address?key=sz3qLEUYu1cJKXShzSazkXb6QtIOxAfH&location=1550+SOUTH+WOLFF+STREET+DENVER,CO,80219"
80336000351,CO-0880-3296,803360,CO-0880,PK,5,GARDEN PLACE ELEMENTARY SCHOOL,School District No. 1 in the county of Denver and State of C,Denver County,4425 LINCOLN STREET,DENVER,CO,80216,3520,(720)424-7220,11,City: Large,No,No,Yes,Yes,390,27.25,14.3,317,38,"4425 LINCOLN STREET DENVER,CO,80216",39.777249,-104.98586,"http://www.mapquestapi.com/geocoding/v1/address?key=sz3qLEUYu1cJKXShzSazkXb6QtIOxAfH&location=4425+LINCOLN+STREET+DENVER,CO,80216"
80336000352,CO-0880-3378,803360,CO-0880,9,12,GEORGE WASHINGTON HIGH SCHOOL,School District No. 1 in the county of Denver and State of C,Denver County,655 SOUTH MONACO PKWY,DENVER,CO,80224,1228,(720)423-8600,11,City: Large,No,No,No,?,1355,75.2,18,660,106,"655 SOUTH MONACO PKWY DENVER,CO,80224",39.705687,-104.912996,"http://www.mapquestapi.com/geocoding/v1/address?key=sz3qLEUYu1cJKXShzSazkXb6QtIOxAfH&location=655+SOUTH+MONACO+PKWY+DENVER,CO,80224"
80336006345,CO-0880-9803,803360,CO-0880,5,12,GILLIAM SCHOOL,School District No. 1 in the county of Denver and State of C,Denver County,2844 DOWNING,DENVER,CO,80205,,(303)294-8930,11,City: Large,No,No,No,?,1,6,0.2,?,?,"2844 DOWNING DENVER,CO,80205",39.757625,-104.973349,"http://www.mapquestapi.com/geocoding/v1/address?key=sz3qLEUYu1cJKXShzSazkXb6QtIOxAfH&location=2844+DOWNING+DENVER,CO,80205"
80336000353,CO-0880-3426,803360,CO-0880,PK,6,GILPIN MONTESSORI PUBLIC SCHOOL,School District No. 1 in the county of Denver and State of C,Denver County,2949 CALIFORNIA STREET,DENVER,CO,80205,3053,(720)424-7140,11,City: Large,No,No,Yes,Yes,282,17.6,16,199,7,"2949 CALIFORNIA STREET DENVER,CO,80205",39.757991,-104.975631,"http://www.mapquestapi.com/geocoding/v1/address?key=sz3qLEUYu1cJKXShzSazkXb6QtIOxAfH&location=2949+CALIFORNIA+STREET+DENVER,CO,80205"
80336006626,CO-0880-3540,803360,CO-0880,9,11,GIRLS ATHLETIC LEADERSHIP SCHOOL HIGH SCHOOL,School District No. 1 in the county of Denver and State of C,Denver County,750 GALAPAGO STREET,DENVER,CO,80204,,(303)282-6437,11,City: Large,Yes,No,No,?,93,8.44,11,43,7,"750 GALAPAGO STREET DENVER,CO,80204",39.728069,-104.996391,"http://www.mapquestapi.com/geocoding/v1/address?key=sz3qLEUYu1cJKXShzSazkXb6QtIOxAfH&location=750+GALAPAGO+STREET+DENVER,CO,80204"
80336006473,CO-0880-3639,803360,CO-0880,6,8,GIRLS ATHLETIC LEADERSHIP SCHOOL MIDDLE SCHOOL,School District No. 1 in the county of Denver and State of C,Denver County,750 Galapago Street,DENVER,CO,80204,,(303)282-6437,11,City: Large,Yes,No,No,?,245,19.22,12.7,114,14,"750 Galapago Street DENVER,CO,80204",39.728069,-104.996391,"http://www.mapquestapi.com/geocoding/v1/address?key=sz3qLEUYu1cJKXShzSazkXb6QtIOxAfH&location=750+GALAPAGO+STREET+DENVER,CO,80204"
80336000354,CO-0880-3478,803360,CO-0880,PK,5,GODSMAN ELEMENTARY SCHOOL,School District No. 1 in the county of Denver and State of C,Denver County,2120 WEST ARKANSAS AVENUE,DENVER,CO,80223,3308,(720)424-7060,11,City: Large,No,No,Yes,Yes,571,35.75,16,452,78,"2120 WEST ARKANSAS AVENUE DENVER,CO,80223",39.690875,-105.012745,"http://www.mapquestapi.com/geocoding/v1/address?key=sz3qLEUYu1cJKXShzSazkXb6QtIOxAfH&location=2120+WEST+ARKANSAS+AVENUE+DENVER,CO,80223"
80336000355,CO-0880-3512,803360,CO-0880,PK,5,GOLDRICK ELEMENTARY SCHOOL,School District No. 1 in the county of Denver and State of C,Denver County,1050 SOUTH ZUNI STREET,DENVER,CO,80223,2541,(720)424-6980,11,City: Large,No,No,Yes,Yes,560,39,14.4,498,46,"1050 SOUTH ZUNI STREET DENVER,CO,80223",39.697495,-105.015679,"http://www.mapquestapi.com/geocoding/v1/address?key=sz3qLEUYu1cJKXShzSazkXb6QtIOxAfH&location=1050+SOUTH+ZUNI+STREET+DENVER,CO,80223"
80336000357,CO-0880-3600,803360,CO-0880,6,8,GRANT BEACON MIDDLE SCHOOL,School District No. 1 in the county of Denver and State of C,Denver County,1751 SOUTH WASHINGTON STREET,DENVER,CO,80210,3235,(720)423-9360,11,City: Large,No,No,Yes,Yes,454,29.5,15.4,350,28,"1751 SOUTH WASHINGTON STREET DENVER,CO,80210",39.684894,-104.979272,"http://www.mapquestapi.com/geocoding/v1/address?key=sz3qLEUYu1cJKXShzSazkXb6QtIOxAfH&location=1751+SOUTH+WASHINGTON+STREET+DENVER,CO,80210"
80336001738,CO-0880-3605,803360,CO-0880,PK,8,GRANT RANCH ECE-8 SCHOOL,School District No. 1 in the county of Denver and State of C,Denver County,5400 SOUTH JAY CIRCLE,DENVER,CO,80123,,(720)424-6880,11,City: Large,No,No,No,?,732,45.5,16.1,352,69,"5400 SOUTH JAY CIRCLE DENVER,CO,80123",39.617149,-105.065561,"http://www.mapquestapi.com/geocoding/v1/address?key=sz3qLEUYu1cJKXShzSazkXb6QtIOxAfH&location=5400+SOUTH+JAY+CIRCLE+DENVER,CO,80123"
80336001776,CO-0880-3641,803360,CO-0880,PK,5,GREEN VALLEY ELEMENTARY SCHOOL,School District No. 1 in the county of Denver and State of C,Denver County,4100 JERICHO ST,DENVER,CO,80249,,(720)424-6710,11,City: Large,No,No,Yes,Yes,752,44.45,16.9,431,74,"4100 JERICHO ST DENVER,CO,80249",39.77302,-104.749459,"http://www.mapquestapi.com/geocoding/v1/address?key=sz3qLEUYu1cJKXShzSazkXb6QtIOxAfH&location=4100+JERICHO+ST+DENVER,CO,80249"
80336006477,CO-0880-3655,803360,CO-0880,PK,5,GREENLEE ELEMENTARY SCHOOL,School District No. 1 in the county of Denver and State of C,Denver County,1150 LIPAN STREET,DENVER,CO,80204,,(720)424-6800,11,City: Large,No,No,Yes,Yes,358,23.25,15.4,314,17,"1150 LIPAN STREET DENVER,CO,80204",39.734422,-105.00156,"http://www.mapquestapi.com/geocoding/v1/address?key=sz3qLEUYu1cJKXShzSazkXb6QtIOxAfH&location=1150+LIPAN+STREET+DENVER,CO,80204"
80336000359,CO-0880-3704,803360,CO-0880,PK,5,GUST ELEMENTARY SCHOOL,School District No. 1 in the county of Denver and State of C,Denver County,3440 WEST YALE AVENUE,DENVER,CO,80219,5847,(720)424-6560,11,City: Large,No,No,Yes,Yes,751,46.56,16.1,569,98,"3440 WEST YALE AVENUE DENVER,CO,80219",39.667717,-105.03093,"http://www.mapquestapi.com/geocoding/v1/address?key=sz3qLEUYu1cJKXShzSazkXb6QtIOxAfH&location=3440+WEST+YALE+AVENUE+DENVER,CO,80219"
80336000372,CO-0880-4782,803360,CO-0880,PK,5,HALLETT FUNDAMENTAL ACADEMY,School District No. 1 in the county of Denver and State of C,Denver County,2950 JASMINE STREET,DENVER,CO,80207,,(720)424-6070,11,City: Large,No,No,Yes,Yes,332,24.5,13.6,271,22,"2950 JASMINE STREET DENVER,CO,80207",39.759266,-104.918756,"http://www.mapquestapi.com/geocoding/v1/address?key=sz3qLEUYu1cJKXShzSazkXb6QtIOxAfH&location=2950+JASMINE+STREET+DENVER,CO,80207"
80336000361,CO-0880-3746,803360,CO-0880,6,8,HAMILTON MIDDLE SCHOOL,School District No. 1 in the county of Denver and State of C,Denver County,8600 EAST DARTMOUTH AVENUE,DENVER,CO,80231,4204,(720)423-9500,11,City: Large,No,No,No,?,917,49.49,18.5,458,73,"8600 EAST DARTMOUTH AVENUE DENVER,CO,80231",39.660354,-104.892891,"http://www.mapquestapi.com/geocoding/v1/address?key=sz3qLEUYu1cJKXShzSazkXb6QtIOxAfH&location=8600+EAST+DARTMOUTH+AVENUE+DENVER,CO,80231"
80336000363,CO-0880-8054,803360,CO-0880,7,8,HENRY WORLD SCHOOL GRADES 6-8,School District No. 1 in the county of Denver and State of C,Denver County,3005 SOUTH GOLDEN WAY,DENVER,CO,80227,3849,(720)423-9560,11,City: Large,No,No,Yes,Yes,659,40.23,16.4,500,70,"3005 SOUTH GOLDEN WAY DENVER,CO,80227",39.659428,-105.057659,"http://www.mapquestapi.com/geocoding/v1/address?key=sz3qLEUYu1cJKXShzSazkXb6QtIOxAfH&location=3005+SOUTH+GOLDEN+WAY+DENVER,CO,80227"
80336006527,CO-0880-2757,803360,CO-0880,9,12,HIGH TECH EARLY COLLEGE,School District No. 1 in the county of Denver and State of C,Denver County,11200 E 45TH AVE,DENVER,CO,80239,,(720)424-2450,11,City: Large,No,No,Yes,Yes,529,33.25,15.9,357,34,"11200 E 45TH AVE DENVER,CO,80239",39.778783,-104.854584,"http://www.mapquestapi.com/geocoding/v1/address?key=sz3qLEUYu1cJKXShzSazkXb6QtIOxAfH&location=11200+E+45TH+AVE+DENVER,CO,80239"
80336006603,CO-0880-3991,803360,CO-0880,PK,5,HIGH TECH ELEMENTARY SCHOOL,School District No. 1 in the county of Denver and State of C,Denver County,8499 E Stoll Place,DENVER,CO,80238,,(720)424-2100,41,Rural: Fringe,No,No,No,?,417,25,16.7,52,11,"8499 E Stoll Place DENVER,CO,80238",39.789031,-104.889389,"http://www.mapquestapi.com/geocoding/v1/address?key=sz3qLEUYu1cJKXShzSazkXb6QtIOxAfH&location=8499+E+Stoll+Place+DENVER,CO,80238"
80336006609,CO-0880-4049,803360,CO-0880,PK,3,HIGHLINE ACADEMY NORTHEAST,School District No. 1 in the county of Denver and State of C,Denver County,19451 EAST MAXWELL PLACE,DENVER,CO,80249,,(720)485-5172,11,City: Large,Yes,No,No,?,253,18.25,13.9,89,45,"19451 EAST MAXWELL PLACE DENVER,CO,80249",39.794827,-104.760957,"http://www.mapquestapi.com/geocoding/v1/address?key=sz3qLEUYu1cJKXShzSazkXb6QtIOxAfH&location=19451+EAST+MAXWELL+PLACE+DENVER,CO,80249"
80336001835,CO-0880-3987,803360,CO-0880,KG,8,HIGHLINE ACADEMY SOUTHEAST,School District No. 1 in the county of Denver and State of C,Denver County,2170 SOUTH DAHLIA STREET,DENVER,CO,80222,3222,(303)759-7808,11,City: Large,Yes,No,No,?,504,36.41,13.8,141,33,"2170 SOUTH DAHLIA STREET DENVER,CO,80222",39.677155,-104.931597,"http://www.mapquestapi.com/geocoding/v1/address?key=sz3qLEUYu1cJKXShzSazkXb6QtIOxAfH&location=2170+SOUTH+DAHLIA+STREET+DENVER,CO,80222"
80336000364,CO-0880-3990,803360,CO-0880,6,8,HILL CAMPUS OF ARTS AND SCIENCES,School District No. 1 in the county of Denver and State of C,Denver County,451 CLERMONT STREET,DENVER,CO,80220,5019,(720)423-9680,11,City: Large,No,No,Yes,Yes,720,43.68,16.5,391,35,"451 CLERMONT STREET DENVER,CO,80220",39.723777,-104.934897,"http://www.mapquestapi.com/geocoding/v1/address?key=sz3qLEUYu1cJKXShzSazkXb6QtIOxAfH&location=451+CLERMONT+STREET+DENVER,CO,80220"
80336000365,CO-0880-4074,803360,CO-0880,PK,5,HOLM ELEMENTARY SCHOOL,School District No. 1 in the county of Denver and State of C,Denver County,3185 SOUTH WILLOW COURT,DENVER,CO,80231,4532,(720)424-6350,11,City: Large,No,No,Yes,Yes,512,32.5,15.8,377,38,"3185 SOUTH WILLOW COURT DENVER,CO,80231",39.656706,-104.887627,"http://www.mapquestapi.com/geocoding/v1/address?key=sz3qLEUYu1cJKXShzSazkXb6QtIOxAfH&location=3185+SOUTH+WILLOW+COURT+DENVER,CO,80231"
80336000362,CO-0880-3778,803360,CO-0880,PK,5,INTERNATIONAL ACADEMY OF DENVER AT HARRINGTON,School District No. 1 in the county of Denver and State of C,Denver County,2401 EAST 37TH AVENUE,DENVER,CO,80205,3513,(720)424-6420,11,City: Large,No,No,Yes,Yes,362,25.75,14.1,326,20,"2401 EAST 37TH AVENUE DENVER,CO,80205",39.768144,-104.958603,"http://www.mapquestapi.com/geocoding/v1/address?key=sz3qLEUYu1cJKXShzSazkXb6QtIOxAfH&location=2401+EAST+37TH+AVENUE+DENVER,CO,80205"
80336006570,CO-0880-4213,803360,CO-0880,PK,5,ISABELLA BIRD COMMUNITY SCHOOL,School District No. 1 in the county of Denver and State of C,Denver County,2701 N. Lima St.,DENVER,CO,80238,,(720)423-9900,11,City: Large,No,No,No,?,462,27.5,16.8,70,18,"2701 N. Lima St. DENVER,CO,80238",39.754833,-104.857731,"http://www.mapquestapi.com/geocoding/v1/address?key=sz3qLEUYu1cJKXShzSazkXb6QtIOxAfH&location=2701+N.+Lima+St.+DENVER,CO,80238"
80336006662,CO-0880-4383,803360,CO-0880,PK,5,JOE SHOEMAKER SCHOOL,School District No. 1 in the county of Denver and State of C,Denver County,3333 SOUTH HAVANA STREET,DENVER,CO,80231,,(720)423-9333,11,City: Large,No,No,Yes,Yes,370,21.67,17.1,197,35,"3333 SOUTH HAVANA STREET DENVER,CO,80231",39.655836,-104.866587,"http://www.mapquestapi.com/geocoding/v1/address?key=sz3qLEUYu1cJKXShzSazkXb6QtIOxAfH&location=3333+SOUTH+HAVANA+STREET+DENVER,CO,80231"
80336000367,CO-0880-4444,803360,CO-0880,9,12,JOHN F KENNEDY HIGH SCHOOL,School District No. 1 in the county of Denver and State of C,Denver County,2855 SOUTH LAMAR STREET,DENVER,CO,80227,3809,(720)423-4300,11,City: Large,No,No,Yes,Yes,1203,70.48,17.1,759,144,"2855 SOUTH LAMAR STREET DENVER,CO,80227",39.661644,-105.067292,"http://www.mapquestapi.com/geocoding/v1/address?key=sz3qLEUYu1cJKXShzSazkXb6QtIOxAfH&location=2855+SOUTH+LAMAR+STREET+DENVER,CO,80227"
80336000368,CO-0880-4450,803360,CO-0880,PK,5,JOHNSON ELEMENTARY SCHOOL,School District No. 1 in the county of Denver and State of C,Denver County,1850 SOUTH IRVING STREET,DENVER,CO,80219,4656,(720)424-6290,11,City: Large,No,No,Yes,Yes,419,28.25,14.8,345,46,"1850 SOUTH IRVING STREET DENVER,CO,80219",39.683133,-105.029794,"http://www.mapquestapi.com/geocoding/v1/address?key=sz3qLEUYu1cJKXShzSazkXb6QtIOxAfH&location=1850+SOUTH+IRVING+STREET+DENVER,CO,80219"
80336006443,CO-0880-4494,803360,CO-0880,9,12,JUSTICE HIGH SCHOOL DENVER,School District No. 1 in the county of Denver and State of C,Denver County,300 E. 9th Ave,DENVER,CO,80203,,(303)480-5610,11,City: Large,Yes,No,Yes,Yes,80,7.08,11.3,67,3,"300 E. 9th Ave DENVER,CO,80203",39.730435,-104.983225,"http://www.mapquestapi.com/geocoding/v1/address?key=sz3qLEUYu1cJKXShzSazkXb6QtIOxAfH&location=300+E.+9th+Ave+DENVER,CO,80203"
80336000369,CO-0880-4498,803360,CO-0880,PK,5,KAISER ELEMENTARY SCHOOL,School District No. 1 in the county of Denver and State of C,Denver County,4500 SOUTH QUITMAN STREET,DENVER,CO,80236,3521,(720)424-6210,11,City: Large,No,No,Yes,Yes,381,26.63,14.3,237,43,"4500 SOUTH QUITMAN STREET DENVER,CO,80236",39.63417,-105.042233,"http://www.mapquestapi.com/geocoding/v1/address?key=sz3qLEUYu1cJKXShzSazkXb6QtIOxAfH&location=4500+SOUTH+QUITMAN+STREET+DENVER,CO,80236"
80336000370,CO-0880-4656,803360,CO-0880,7,8,KEPNER MIDDLE SCHOOL,School District No. 1 in the county of Denver and State of C,Denver County,911 SOUTH HAZEL COURT,DENVER,CO,80219,3418,(720)424-0000,11,City: Large,No,No,Yes,Yes,473,28,16.9,420,33,"911 SOUTH HAZEL COURT DENVER,CO,80219",39.70018,-105.027423,"http://www.mapquestapi.com/geocoding/v1/address?key=sz3qLEUYu1cJKXShzSazkXb6QtIOxAfH&location=911+SOUTH+HAZEL+COURT+DENVER,CO,80219"
80336006448,CO-0880-4730,803360,CO-0880,9,12,KIPP DENVER COLLEGIATE HIGH SCHOOL,School District No. 1 in the county of Denver and State of C,Denver County,451 SOUTH TEJON STREET,DENVER,CO,80223,,(303)922-5324,11,City: Large,Yes,No,Yes,Yes,380,36.7,10.4,323,36,"451 SOUTH TEJON STREET DENVER,CO,80223",39.708448,-105.010992,"http://www.mapquestapi.com/geocoding/v1/address?key=sz3qLEUYu1cJKXShzSazkXb6QtIOxAfH&location=451+SOUTH+TEJON+STREET+DENVER,CO,80223"
80336006519,CO-0880-4507,803360,CO-0880,5,8,KIPP MONTBELLO COLLEGE PREP,School District No. 1 in the county of Denver and State of C,Denver County,5290 KITTREDGE STREET,DENVER,CO,80239,,(303)307-1970,11,City: Large,Yes,No,Yes,Yes,439,36.63,12,345,48,"5290 KITTREDGE STREET DENVER,CO,80239",39.788336,-104.801989,"http://www.mapquestapi.com/geocoding/v1/address?key=sz3qLEUYu1cJKXShzSazkXb6QtIOxAfH&location=5290+KITTREDGE+STREET+DENVER,CO,80239"
80336006652,CO-0880-4500,803360,CO-0880,KG,2,KIPP MONTBELLO ELEMENTARY,School District No. 1 in the county of Denver and State of C,Denver County,19451 EAST MAXWELL PLACE,DENVER,CO,80249,,(720)452-2551,11,City: Large,Yes,No,Yes,Yes,156,10.11,15.4,92,27,"19451 EAST MAXWELL PLACE DENVER,CO,80249",39.794827,-104.760957,"http://www.mapquestapi.com/geocoding/v1/address?key=sz3qLEUYu1cJKXShzSazkXb6QtIOxAfH&location=19451+EAST+MAXWELL+PLACE+DENVER,CO,80249"
80336006670,CO-0880-4509,803360,CO-0880,9,10,KIPP NORTHEAST DENVER LEADERSHIP ACADEMY,School District No. 1 in the county of Denver and State of C,Denver County,11200 EAST 45TH AVENUE,DENVER,CO,80239,,(720)452-2570,11,City: Large,Yes,No,Yes,Yes,136,11.56,11.8,98,19,"11200 EAST 45TH AVENUE DENVER,CO,80239",39.778783,-104.854584,"http://www.mapquestapi.com/geocoding/v1/address?key=sz3qLEUYu1cJKXShzSazkXb6QtIOxAfH&location=11200+EAST+45TH+AVENUE+DENVER,CO,80239"
80336001865,CO-0880-4732,803360,CO-0880,5,8,KIPP SUNSHINE PEAK ACADEMY,School District No. 1 in the county of Denver and State of C,Denver County,375 S TEJON STREET,DENVER,CO,80223,,(303)623-5772,11,City: Large,Yes,No,Yes,Yes,393,37.52,10.5,347,36,"375 S TEJON STREET DENVER,CO,80223",39.710001,-105.011001,"http://www.mapquestapi.com/geocoding/v1/address?key=sz3qLEUYu1cJKXShzSazkXb6QtIOxAfH&location=375+S+TEJON+STREET+DENVER,CO,80223"
80336000371,CO-0880-4762,803360,CO-0880,PK,5,KNAPP ELEMENTARY SCHOOL,School District No. 1 in the county of Denver and State of C,Denver County,500 SOUTH UTICA STREET,DENVER,CO,80219,2364,(720)424-6130,11,City: Large,No,No,Yes,Yes,639,42.75,14.9,533,65,"500 SOUTH UTICA STREET DENVER,CO,80219",39.707834,-105.046077,"http://www.mapquestapi.com/geocoding/v1/address?key=sz3qLEUYu1cJKXShzSazkXb6QtIOxAfH&location=500+SOUTH+UTICA+STREET+DENVER,CO,80219"
80336006442,CO-0880-4795,803360,CO-0880,KG,12,KUNSMILLER CREATIVE ARTS ACADEMY,School District No. 1 in the county of Denver and State of C,Denver County,2250 SOUTH QUITMAN WAY,DENVER,CO,80219,,(720)424-0200,11,City: Large,No,No,Yes,Yes,1043,62.77,16.6,752,101,"2250 SOUTH QUITMAN WAY DENVER,CO,80219",39.676382,-105.040616,"http://www.mapquestapi.com/geocoding/v1/address?key=sz3qLEUYu1cJKXShzSazkXb6QtIOxAfH&location=2250+SOUTH+QUITMAN+WAY+DENVER,CO,80219"
80336006490,CO-0880-5255,803360,CO-0880,6,8,LAKE INTERNATIONAL SCHOOL,School District No. 1 in the county of Denver and State of C,Denver County,1820 LOWELL BLVD,DENVER,CO,80204,,(720)424-0260,11,City: Large,No,No,Yes,Yes,329,23.93,13.7,294,17,"1820 LOWELL BLVD DENVER,CO,80204",39.746403,-105.034603,"http://www.mapquestapi.com/geocoding/v1/address?key=sz3qLEUYu1cJKXShzSazkXb6QtIOxAfH&location=1820+LOWELL+BLVD+DENVER,CO,80204"
80336006669,CO-0880-5044,803360,CO-0880,9,10,LEGACY OPTIONS HIGH SCHOOL,School District No. 1 in the county of Denver and State of C,Denver County,6850 NORTH ARGONNE STREET,DENVER,CO,80249,,(720)424-3100,41,Rural: Fringe,No,No,Yes,Yes,27,6.5,4.2,23,3,"6850 NORTH ARGONNE STREET DENVER,CO,80249",39.803551,-104.769107,"http://www.mapquestapi.com/geocoding/v1/address?key=sz3qLEUYu1cJKXShzSazkXb6QtIOxAfH&location=6850+NORTH+ARGONNE+STREET+DENVER,CO,80249"
80336001864,CO-0880-3340,803360,CO-0880,1,5,LENA ARCHULETA ELEMENTARY SCHOOL,School District No. 1 in the county of Denver and State of C,Denver County,16000 MAXWELL PLACE,DENVER,CO,80239,5246,(720)424-9888,11,City: Large,No,No,Yes,Yes,564,33,17.1,403,93,"16000 MAXWELL PLACE DENVER,CO,80239",39.794693,-104.802585,"http://www.mapquestapi.com/geocoding/v1/address?key=sz3qLEUYu1cJKXShzSazkXb6QtIOxAfH&location=16000+MAXWELL+PLACE+DENVER,CO,80239"
80336000375,CO-0880-5158,803360,CO-0880,PK,6,LINCOLN ELEMENTARY SCHOOL,School District No. 1 in the county of Denver and State of C,Denver County,710 SOUTH PENNSYLVANIA STREET,DENVER,CO,80209,4135,(720)424-5990,11,City: Large,No,No,No,?,362,21.49,16.8,63,16,"710 SOUTH PENNSYLVANIA STREET DENVER,CO,80209",39.703221,-104.981599,"http://www.mapquestapi.com/geocoding/v1/address?key=sz3qLEUYu1cJKXShzSazkXb6QtIOxAfH&location=710+SOUTH+PENNSYLVANIA+STREET+DENVER,CO,80209"
80336001867,CO-0880-5342,803360,CO-0880,PK,5,LOWRY ELEMENTARY SCHOOL,School District No. 1 in the county of Denver and State of C,Denver County,8001 EAST CEDAR AVENUE,DENVER,CO,80230,,(720)424-5910,11,City: Large,No,No,No,?,498,28.5,17.5,193,24,"8001 EAST CEDAR AVENUE DENVER,CO,80230",39.712255,-104.896567,"http://www.mapquestapi.com/geocoding/v1/address?key=sz3qLEUYu1cJKXShzSazkXb6QtIOxAfH&location=8001+EAST+CEDAR+AVENUE+DENVER,CO,80230"
80336006328,CO-0880-5448,803360,CO-0880,9,12,MANUAL HIGH SCHOOL,School District No. 1 in the county of Denver and State of C,Denver County,1700 EAST 28TH AVENUE,DENVER,CO,80205,,(720)423-6300,11,City: Large,No,No,Yes,Yes,288,23.81,12.1,235,20,"1700 EAST 28TH AVENUE DENVER,CO,80205",39.756993,-104.968436,"http://www.mapquestapi.com/geocoding/v1/address?key=sz3qLEUYu1cJKXShzSazkXb6QtIOxAfH&location=1700+EAST+28TH+AVENUE+DENVER,CO,80205"
80336001739,CO-0880-3647,803360,CO-0880,1,8,MARIE L. GREENWOOD ACADEMY,School District No. 1 in the county of Denver and State of C,Denver County,5130 DURHAM COURT,DENVER,CO,80239,,(720)424-6630,11,City: Large,No,No,Yes,Yes,636,43,14.8,519,74,"5130 DURHAM COURT DENVER,CO,80239",39.786885,-104.818045,"http://www.mapquestapi.com/geocoding/v1/address?key=sz3qLEUYu1cJKXShzSazkXb6QtIOxAfH&location=5130+DURHAM+COURT+DENVER,CO,80239"
80336001380,CO-0880-5578,803360,CO-0880,PK,5,MARRAMA ELEMENTARY SCHOOL,School District No. 1 in the county of Denver and State of C,Denver County,19100 EAST 40TH AVENUE,DENVER,CO,80249,7127,(720)424-5820,11,City: Large,No,No,Yes,Yes,591,33.99,17.4,377,94,"19100 EAST 40TH AVENUE DENVER,CO,80249",39.771669,-104.7641,"http://www.mapquestapi.com/geocoding/v1/address?key=sz3qLEUYu1cJKXShzSazkXb6QtIOxAfH&location=19100+EAST+40TH+AVENUE+DENVER,CO,80249"
80336006445,CO-0880-5608,803360,CO-0880,KG,5,MATHEMATICS AND SCIENCE LEADERSHIP ACADEMY,School District No. 1 in the county of Denver and State of C,Denver County,451 SOUTH TEJON STREET,DENVER,CO,80223,,(720)424-1310,11,City: Large,No,No,Yes,Yes,237,15.75,15,210,18,"451 SOUTH TEJON STREET DENVER,CO,80223",39.708448,-105.010992,"http://www.mapquestapi.com/geocoding/v1/address?key=sz3qLEUYu1cJKXShzSazkXb6QtIOxAfH&location=451+SOUTH+TEJON+STREET+DENVER,CO,80223"
80336001635,CO-0880-5644,803360,CO-0880,PK,5,MAXWELL ELEMENTARY SCHOOL,School District No. 1 in the county of Denver and State of C,Denver County,14390 EAST BOLLING DRIVE,DENVER,CO,80239,4329,(720)424-5740,11,City: Large,No,No,Yes,Yes,546,32.94,16.6,453,42,"14390 EAST BOLLING DRIVE DENVER,CO,80239",39.783224,-104.822217,"http://www.mapquestapi.com/geocoding/v1/address?key=sz3qLEUYu1cJKXShzSazkXb6QtIOxAfH&location=14390+EAST+BOLLING+DRIVE+DENVER,CO,80239"
80336000377,CO-0880-5702,803360,CO-0880,PK,5,MC KINLEY-THATCHER ELEMENTARY SCHOOL,School District No. 1 in the county of Denver and State of C,Denver County,1230 SOUTH GRANT STREET,DENVER,CO,80210,1521,(720)424-5600,11,City: Large,No,No,No,?,182,14.08,12.9,74,11,"1230 SOUTH GRANT STREET DENVER,CO,80210",39.694117,-104.983713,"http://www.mapquestapi.com/geocoding/v1/address?key=sz3qLEUYu1cJKXShzSazkXb6QtIOxAfH&location=1230+SOUTH+GRANT+STREET+DENVER,CO,80210"
80336000378,CO-0880-5716,803360,CO-0880,PK,5,MC MEEN ELEMENTARY SCHOOL,School District No. 1 in the county of Denver and State of C,Denver County,1000 SOUTH HOLLY STREET,DENVER,CO,80246,2308,(720)424-5520,11,City: Large,No,No,Yes,Yes,659,43.49,15.2,461,62,"1000 SOUTH HOLLY STREET DENVER,CO,80246",39.697862,-104.921622,"http://www.mapquestapi.com/geocoding/v1/address?key=sz3qLEUYu1cJKXShzSazkXb6QtIOxAfH&location=1000+SOUTH+HOLLY+STREET+DENVER,CO,80246"
80336006562,CO-0880-5897,803360,CO-0880,6,8,MCAULIFFE INTERNATIONAL SCHOOL,School District No. 1 in the county of Denver and State of C,Denver County,2540 Holly St.,DENVER,CO,80207,,(720)424-1540,11,City: Large,No,No,No,?,825,48.7,16.9,141,20,"2540 Holly St. DENVER,CO,80207",39.754171,-104.9223,"http://www.mapquestapi.com/geocoding/v1/address?key=sz3qLEUYu1cJKXShzSazkXb6QtIOxAfH&location=2540+Holly+St.+DENVER,CO,80207"
80336001276,CO-0880-5685,803360,CO-0880,PK,6,MCGLONE ACADEMY,School District No. 1 in the county of Denver and State of C,Denver County,4500 CROWN BOULEVARD,DENVER,CO,80239,4416,(720)424-5660,11,City: Large,No,No,Yes,Yes,730,47.25,15.4,635,53,"4500 CROWN BOULEVARD DENVER,CO,80239",39.780252,-104.838788,"http://www.mapquestapi.com/geocoding/v1/address?key=sz3qLEUYu1cJKXShzSazkXb6QtIOxAfH&location=4500+CROWN+BOULEVARD+DENVER,CO,80239"
80336000379,CO-0880-5826,803360,CO-0880,6,8,MERRILL MIDDLE SCHOOL,School District No. 1 in the county of Denver and State of C,Denver County,1551 SOUTH MONROE STREET,DENVER,CO,80210,3015,(720)424-0600,11,City: Large,No,No,Yes,Yes,551,39.01,14.1,290,33,"1551 SOUTH MONROE STREET DENVER,CO,80210",39.688391,-104.94537,"http://www.mapquestapi.com/geocoding/v1/address?key=sz3qLEUYu1cJKXShzSazkXb6QtIOxAfH&location=1551+SOUTH+MONROE+STREET+DENVER,CO,80210"
80336006555,CO-0880-5621,803360,CO-0880,KG,5,MONARCH MONTESSORI,School District No. 1 in the county of Denver and State of C,Denver County,4895 Peoria Street,DENVER,CO,80239,,(303)712-2001,11,City: Large,Yes,No,Yes,Yes,256,15.17,16.9,144,34,"4895 Peoria Street DENVER,CO,80239",39.785108,-104.847133,"http://www.mapquestapi.com/geocoding/v1/address?key=sz3qLEUYu1cJKXShzSazkXb6QtIOxAfH&location=4895+Peoria+Street+DENVER,CO,80239"
80336000384,CO-0880-6002,803360,CO-0880,PK,5,MONTCLAIR ELEMENTARY SCHOOL,School District No. 1 in the county of Denver and State of C,Denver County,1151 NEWPORT STREET,DENVER,CO,80220,4751,(720)424-5380,11,City: Large,No,No,Yes,Yes,462,32.69,14.1,317,23,"1151 NEWPORT STREET DENVER,CO,80220",39.733529,-104.909396,"http://www.mapquestapi.com/geocoding/v1/address?key=sz3qLEUYu1cJKXShzSazkXb6QtIOxAfH&location=1151+NEWPORT+STREET+DENVER,CO,80220"
80336000386,CO-0880-6098,803360,CO-0880,6,8,MOREY MIDDLE SCHOOL,School District No. 1 in the county of Denver and State of C,Denver County,840 EAST 14TH AVENUE,DENVER,CO,80218,1803,(720)424-0700,11,City: Large,No,No,No,?,293,19.51,15,124,14,"840 EAST 14TH AVENUE DENVER,CO,80218",39.738441,-104.977018,"http://www.mapquestapi.com/geocoding/v1/address?key=sz3qLEUYu1cJKXShzSazkXb6QtIOxAfH&location=840+EAST+14TH+AVENUE+DENVER,CO,80218"
80336000387,CO-0880-6188,803360,CO-0880,PK,5,MUNROE ELEMENTARY SCHOOL,School District No. 1 in the county of Denver and State of C,Denver County,3440 WEST VIRGINIA AVENUE,DENVER,CO,80219,2730,(720)424-5230,11,City: Large,No,No,Yes,Yes,573,40.35,14.2,523,37,"3440 WEST VIRGINIA AVENUE DENVER,CO,80219",39.707672,-105.031164,"http://www.mapquestapi.com/geocoding/v1/address?key=sz3qLEUYu1cJKXShzSazkXb6QtIOxAfH&location=3440+WEST+VIRGINIA+AVENUE+DENVER,CO,80219"
80336000388,CO-0880-6254,803360,CO-0880,PK,5,NEWLON ELEMENTARY SCHOOL,School District No. 1 in the county of Denver and State of C,Denver County,361 VRAIN STREET,DENVER,CO,80219,1147,(720)424-5150,11,City: Large,No,No,Yes,Yes,556,34,16.4,453,59,"361 VRAIN STREET DENVER,CO,80219",39.721722,-105.045442,"http://www.mapquestapi.com/geocoding/v1/address?key=sz3qLEUYu1cJKXShzSazkXb6QtIOxAfH&location=361+VRAIN+STREET+DENVER,CO,80219"
80336006520,CO-0880-6239,803360,CO-0880,6,12,NOEL COMMUNITY ARTS SCHOOL,School District No. 1 in the county of Denver and State of C,Denver County,5000 Crown Boulevard,DENVER,CO,80239,,(720)423-5840,11,City: Large,No,No,Yes,Yes,753,44.37,17,556,55,"5000 Crown Boulevard DENVER,CO,80239",39.786827,-104.829472,"http://www.mapquestapi.com/geocoding/v1/address?key=sz3qLEUYu1cJKXShzSazkXb6QtIOxAfH&location=5000+Crown+Boulevard+DENVER,CO,80239"
80336000389,CO-0880-6314,803360,CO-0880,9,12,NORTH HIGH SCHOOL,School District No. 1 in the county of Denver and State of C,Denver County,2960 NORTH SPEER BOULEVARD,DENVER,CO,80211,3754,(720)423-2700,11,City: Large,No,No,Yes,Yes,933,65.85,14.2,677,93,"2960 NORTH SPEER BOULEVARD DENVER,CO,80211",39.75842,-105.02132,"http://www.mapquestapi.com/geocoding/v1/address?key=sz3qLEUYu1cJKXShzSazkXb6QtIOxAfH&location=2960+NORTH+SPEER+BOULEVARD+DENVER,CO,80211"
80336006569,CO-0880-6308,803360,CO-0880,9,12,NORTH HIGH SCHOOL ENGAGEMENT CENTER,School District No. 1 in the county of Denver and State of C,Denver County,2960 N.SPEER BLVD,DENVER,CO,80211,,(720)423-2700,11,City: Large,No,No,Yes,Yes,93,5.5,16.9,71,7,"2960 N.SPEER BLVD DENVER,CO,80211",39.75842,-105.02132,"http://www.mapquestapi.com/geocoding/v1/address?key=sz3qLEUYu1cJKXShzSazkXb6QtIOxAfH&location=2960+N.SPEER+BLVD+DENVER,CO,80211"
80336006660,CO-0880-6368,803360,CO-0880,9,10,NORTHFIELD HIGH SCHOOL,School District No. 1 in the county of Denver and State of C,Denver County,5500 CENTRAL PARK BLVD,DENVER,CO,80238,,(720)423-8000,11,City: Large,No,No,No,?,194,10.5,18.5,80,17,"5500 CENTRAL PARK BLVD DENVER,CO,80238",39.797278,-104.884255,"http://www.mapquestapi.com/geocoding/v1/address?key=sz3qLEUYu1cJKXShzSazkXb6QtIOxAfH&location=5500+CENTRAL+PARK+BLVD+DENVER,CO,80238"
80336006525,CO-0880-8131,803360,CO-0880,PK,5,OAKLAND ELEMENTARY,School District No. 1 in the county of Denver and State of C,Denver County,4580 DEARBORN STREET,DENVER,CO,80239,,(720)424-5070,11,City: Large,No,No,Yes,Yes,451,31.95,14.1,355,56,"4580 DEARBORN STREET DENVER,CO,80239",39.777526,-104.820093,"http://www.mapquestapi.com/geocoding/v1/address?key=sz3qLEUYu1cJKXShzSazkXb6QtIOxAfH&location=4580+DEARBORN+STREET+DENVER,CO,80239"
80336001636,CO-0880-6479,803360,CO-0880,KG,8,ODYSSEY SCHOOL OF DENVER,School District No. 1 in the county of Denver and State of C,Denver County,6550 EAST 21ST AVENUE,DENVER,CO,80207,,(303)316-3944,11,City: Large,Yes,No,No,?,234,17.69,13.2,48,18,"6550 EAST 21ST AVENUE DENVER,CO,80207",39.748616,-104.911171,"http://www.mapquestapi.com/geocoding/v1/address?key=sz3qLEUYu1cJKXShzSazkXb6QtIOxAfH&location=6550+EAST+21ST+AVENUE+DENVER,CO,80207"
80336001838,CO-0880-6508,803360,CO-0880,KG,8,OMAR D BLAIR CHARTER SCHOOL,School District No. 1 in the county of Denver and State of C,Denver County,4905 CATHAY STREET,DENVER,CO,80249,,(303)371-9570,11,City: Large,Yes,No,No,?,804,38.17,21.1,408,112,"4905 CATHAY STREET DENVER,CO,80249",39.786254,-104.764753,"http://www.mapquestapi.com/geocoding/v1/address?key=sz3qLEUYu1cJKXShzSazkXb6QtIOxAfH&location=4905+CATHAY+STREET+DENVER,CO,80249"
80336001795,CO-0880-7163,803360,CO-0880,6,12,P.R.E.P. (POSITIVE REFOCUS EDUCATION PROGRAM),School District No. 1 in the county of Denver and State of C,Denver County,2727 COLUMBINE STREET,DENVER,CO,80205,,(720)424-8451,11,City: Large,No,No,Yes,Yes,171,16,10.7,112,13,"2727 COLUMBINE STREET DENVER,CO,80205",39.756358,-104.957363,"http://www.mapquestapi.com/geocoding/v1/address?key=sz3qLEUYu1cJKXShzSazkXb6QtIOxAfH&location=2727+COLUMBINE+STREET+DENVER,CO,80205"
80336006591,CO-0880-7188,803360,CO-0880,9,12,P.U.S.H. ACADEMY,School District No. 1 in the county of Denver and State of C,Denver County,4501 Airport Way,DENVER,CO,80239,,(720)423-7200,11,City: Large,No,No,Yes,Yes,221,11.52,19.2,146,24,"4501 Airport Way DENVER,CO,80239",39.775106,-104.795509,"http://www.mapquestapi.com/geocoding/v1/address?key=sz3qLEUYu1cJKXShzSazkXb6QtIOxAfH&location=4501+Airport+Way+DENVER,CO,80239"
80336000390,CO-0880-6676,803360,CO-0880,PK,5,PALMER ELEMENTARY SCHOOL,School District No. 1 in the county of Denver and State of C,Denver County,995 GRAPE STREET,DENVER,CO,80220,4426,(720)424-5000,11,City: Large,No,No,No,?,295,18.31,16.1,119,16,"995 GRAPE STREET DENVER,CO,80220",39.731938,-104.924595,"http://www.mapquestapi.com/geocoding/v1/address?key=sz3qLEUYu1cJKXShzSazkXb6QtIOxAfH&location=995+GRAPE+STREET+DENVER,CO,80220"
80336000391,CO-0880-6754,803360,CO-0880,PK,5,PARK HILL SCHOOL,School District No. 1 in the county of Denver and State of C,Denver County,5050 EAST 19TH AVENUE,DENVER,CO,80220,1229,(720)424-4910,11,City: Large,No,No,No,?,603,32.99,18.3,134,8,"5050 EAST 19TH AVENUE DENVER,CO,80220",39.745598,-104.929325,"http://www.mapquestapi.com/geocoding/v1/address?key=sz3qLEUYu1cJKXShzSazkXb6QtIOxAfH&location=5050+EAST+19TH+AVENUE+DENVER,CO,80220"
80336006582,CO-0880-7192,803360,CO-0880,PK,PK,PASCUAL LEDOUX ACADEMY,School District No. 1 in the county of Denver and State of C,Denver County,1055 SOUTH HAZEL COURT,DENVER,CO,80219,,(720)423-9240,11,City: Large,No,No,No,?,239,16.5,14.5,174,21,"1055 SOUTH HAZEL COURT DENVER,CO,80219",39.697572,-105.02745,"http://www.mapquestapi.com/geocoding/v1/address?key=sz3qLEUYu1cJKXShzSazkXb6QtIOxAfH&location=1055+SOUTH+HAZEL+COURT+DENVER,CO,80219"
80336006398,CO-0880-7045,803360,CO-0880,PK,8,PLACE BRIDGE ACADEMY,School District No. 1 in the county of Denver and State of C,Denver County,7125 CHERRY CREEK DRIVE NORTH,DENVER,CO,80224,,(720)424-0960,11,City: Large,No,No,Yes,Yes,1022,68.84,14.8,921,53,"7125 CHERRY CREEK DRIVE NORTH DENVER,CO,80224",39.707353,-104.941107,"http://www.mapquestapi.com/geocoding/v1/address?key=sz3qLEUYu1cJKXShzSazkXb6QtIOxAfH&location=7125+CHERRY+CREEK+DRIVE+NORTH+DENVER,CO,80224"
80336001767,CO-0880-2027,803360,CO-0880,KG,5,POLARIS AT EBERT ELEMENTARY SCHOOL,School District No. 1 in the county of Denver and State of C,Denver County,410 PARK AVENUE WEST,DENVER,CO,80205,3113,(720)424-7860,11,City: Large,No,No,No,?,333,17.5,19,9,10,"410 PARK AVENUE WEST DENVER,CO,80205",39.750055,-104.981551,"http://www.mapquestapi.com/geocoding/v1/address?key=sz3qLEUYu1cJKXShzSazkXb6QtIOxAfH&location=410+PARK+AVENUE+WEST+DENVER,CO,80205"
80336006641,CO-0880-7243,803360,CO-0880,PK,3,REACH CHARTER SCHOOL,School District No. 1 in the county of Denver and State of C,Denver County,940 FILLMORE STREET,DENVER,CO,80206,,(720)446-8927,11,City: Large,Yes,No,No,?,100,3.24,30.9,22,7,"940 FILLMORE STREET DENVER,CO,80206",39.731506,-104.952865,"http://www.mapquestapi.com/geocoding/v1/address?key=sz3qLEUYu1cJKXShzSazkXb6QtIOxAfH&location=940+FILLMORE+STREET+DENVER,CO,80206"
80336006590,CO-0880-7246,803360,CO-0880,9,12,RESPECT ACADEMY AT LINCOLN,School District No. 1 in the county of Denver and State of C,Denver County,2285 SOUTH FEDERAL BLVD,DENVER,CO,80219,,(720)423-5203,11,City: Large,No,No,Yes,Yes,107,6,17.8,74,8,"2285 SOUTH FEDERAL BLVD DENVER,CO,80219",39.676968,-105.025057,"http://www.mapquestapi.com/geocoding/v1/address?key=sz3qLEUYu1cJKXShzSazkXb6QtIOxAfH&location=2285+SOUTH+FEDERAL+BLVD+DENVER,CO,80219"
80336006647,CO-0880-7361,803360,CO-0880,9,12,RISEUP COMMUNITY SCHOOL,School District No. 1 in the county of Denver and State of C,Denver County,1801 FEDERAL BLVD,DENVER,CO,80204,,(303)477-0517,11,City: Large,Yes,No,Yes,Yes,119,5.95,20,86,3,"1801 FEDERAL BLVD DENVER,CO,80204",39.745326,-105.025234,"http://www.mapquestapi.com/geocoding/v1/address?key=sz3qLEUYu1cJKXShzSazkXb6QtIOxAfH&location=1801+FEDERAL+BLVD+DENVER,CO,80204"
80336006545,CO-0880-7241,803360,CO-0880,PK,5,ROCKY MOUNTAIN PREP: CREEKSIDE,School District No. 1 in the county of Denver and State of C,Denver County,7808 CHERRY CREEK SOUTH DR,DENVER,CO,80231,,(720)863-8920,11,City: Large,Yes,No,Yes,Yes,452,24.1,18.8,293,55,"7808 CHERRY CREEK SOUTH DR DENVER,CO,80231",39.679808,-104.897481,"http://www.mapquestapi.com/geocoding/v1/address?key=sz3qLEUYu1cJKXShzSazkXb6QtIOxAfH&location=7808+CHERRY+CREEK+SOUTH+DR+DENVER,CO,80231"
80336006646,CO-0880-7471,803360,CO-0880,PK,2,ROCKY MOUNTAIN PREP: SOUTHWEST,School District No. 1 in the county of Denver and State of C,Denver County,911 SOUTH HAZEL COURT,DENVER,CO,80219,,(720)863-8920,11,City: Large,Yes,No,Yes,Yes,130,12.21,10.6,107,14,"911 SOUTH HAZEL COURT DENVER,CO,80219",39.70018,-105.027423,"http://www.mapquestapi.com/geocoding/v1/address?key=sz3qLEUYu1cJKXShzSazkXb6QtIOxAfH&location=911+SOUTH+HAZEL+COURT+DENVER,CO,80219"
80000400709,CO-9130-2840,800004,CO-9130,KG,12,ROCKY MOUNTAIN SCHOOL OF EXPEDITIONARY LEARNING,DENVER 1,Denver County,1700 SOUTH HOLLY STREET,DENVER,CO,80222,,(303)759-2076,11,City: Large,No,No,No,?,397,33.28,11.9,0,0,"1700 SOUTH HOLLY STREET DENVER,CO,80222",39.685007,-104.922255,"http://www.mapquestapi.com/geocoding/v1/address?key=sz3qLEUYu1cJKXShzSazkXb6QtIOxAfH&location=1700+SOUTH+HOLLY+STREET+DENVER,CO,80222"
80336006642,CO-0880-7496,803360,CO-0880,KG,2,ROOTS ELEMENTARY,School District No. 1 in the county of Denver and State of C,Denver County,3475 HOLLY STREET,DENVER,CO,80207,,(720)724-6841,11,City: Large,Yes,No,Yes,Yes,89,4.93,18.1,75,3,"3475 HOLLY STREET DENVER,CO,80207",39.765231,-104.922295,"http://www.mapquestapi.com/geocoding/v1/address?key=sz3qLEUYu1cJKXShzSazkXb6QtIOxAfH&location=3475+HOLLY+STREET+DENVER,CO,80207"
80336000398,CO-0880-7554,803360,CO-0880,PK,5,SABIN WORLD SCHOOL,School District No. 1 in the county of Denver and State of C,Denver County,3050 SOUTH VRAIN STREET,DENVER,CO,80236,2119,(720)424-4520,11,City: Large,No,No,Yes,Yes,713,46,15.5,412,96,"3050 SOUTH VRAIN STREET DENVER,CO,80236",39.658812,-105.046561,"http://www.mapquestapi.com/geocoding/v1/address?key=sz3qLEUYu1cJKXShzSazkXb6QtIOxAfH&location=3050+SOUTH+VRAIN+STREET+DENVER,CO,80236"
80336000399,CO-0880-7578,803360,CO-0880,PK,5,SAMUELS ELEMENTARY SCHOOL,School District No. 1 in the county of Denver and State of C,Denver County,3985 SOUTH VINCENNES COURT,DENVER,CO,80237,1748,(720)424-4450,11,City: Large,No,No,Yes,Yes,501,34.49,14.5,346,42,"3985 SOUTH VINCENNES COURT DENVER,CO,80237",39.643063,-104.891234,"http://www.mapquestapi.com/geocoding/v1/address?key=sz3qLEUYu1cJKXShzSazkXb6QtIOxAfH&location=3985+SOUTH+VINCENNES+COURT+DENVER,CO,80237"
80336000401,CO-0880-7698,803360,CO-0880,PK,5,SCHMITT ELEMENTARY SCHOOL,School District No. 1 in the county of Denver and State of C,Denver County,1820 SOUTH VALLEJO STREET,DENVER,CO,80223,3710,(720)424-4230,11,City: Large,No,No,Yes,Yes,402,28.49,14.1,353,32,"1820 SOUTH VALLEJO STREET DENVER,CO,80223",39.683198,-105.012895,"http://www.mapquestapi.com/geocoding/v1/address?key=sz3qLEUYu1cJKXShzSazkXb6QtIOxAfH&location=1820+SOUTH+VALLEJO+STREET+DENVER,CO,80223"
80336000403,CO-0880-7942,803360,CO-0880,6,8,SKINNER MIDDLE SCHOOL,School District No. 1 in the county of Denver and State of C,Denver County,3435 WEST 40TH AVENUE,DENVER,CO,80211,1921,(720)424-1420,11,City: Large,No,No,Yes,Yes,615,38.5,16,345,61,"3435 WEST 40TH AVENUE DENVER,CO,80211",39.771828,-105.03157,"http://www.mapquestapi.com/geocoding/v1/address?key=sz3qLEUYu1cJKXShzSazkXb6QtIOxAfH&location=3435+WEST+40TH+AVENUE+DENVER,CO,80211"
80336001524,CO-0880-7972,803360,CO-0880,KG,8,SLAVENS K-8 SCHOOL,School District No. 1 in the county of Denver and State of C,Denver County,3000 SOUTH CLAYTON STREET,DENVER,CO,80210,6704,(720)424-4150,11,City: Large,No,No,No,?,690,41.17,16.8,58,5,"3000 SOUTH CLAYTON STREET DENVER,CO,80210",39.66136,-104.956555,"http://www.mapquestapi.com/geocoding/v1/address?key=sz3qLEUYu1cJKXShzSazkXb6QtIOxAfH&location=3000+SOUTH+CLAYTON+STREET+DENVER,CO,80210"
80336000407,CO-0880-8006,803360,CO-0880,PK,5,SMITH ELEMENTARY SCHOOL,School District No. 1 in the county of Denver and State of C,Denver County,3590 JASMINE STREET,DENVER,CO,80207,1350,(720)424-4000,11,City: Large,No,No,Yes,Yes,400,30.06,13.3,341,34,"3590 JASMINE STREET DENVER,CO,80207",39.766534,-104.918801,"http://www.mapquestapi.com/geocoding/v1/address?key=sz3qLEUYu1cJKXShzSazkXb6QtIOxAfH&location=3590+JASMINE+STREET+DENVER,CO,80207"
80336006486,CO-0880-8053,803360,CO-0880,KG,5,SOAR AT GREEN VALLEY RANCH,School District No. 1 in the county of Denver and State of C,Denver County,4800 TELLURIDE STREET #4,DENVER,CO,80249,,(720)287-5100,11,City: Large,Yes,No,Yes,Yes,452,31.27,14.5,251,95,"4800 TELLURIDE STREET #4 DENVER,CO,80249",39.785651,-104.781664,"http://www.mapquestapi.com/geocoding/v1/address?key=sz3qLEUYu1cJKXShzSazkXb6QtIOxAfH&location=4800+TELLURIDE+STREET+#4+DENVER,CO,80249"
80336000408,CO-0880-8086,803360,CO-0880,9,12,SOUTH HIGH SCHOOL,School District No. 1 in the county of Denver and State of C,Denver County,1700 EAST LOUISIANA AVENUE,DENVER,CO,80210,1810,(720)423-6000,11,City: Large,No,No,Yes,Yes,1565,94.06,16.6,927,125,"1700 EAST LOUISIANA AVENUE DENVER,CO,80210",39.692956,-104.966355,"http://www.mapquestapi.com/geocoding/v1/address?key=sz3qLEUYu1cJKXShzSazkXb6QtIOxAfH&location=1700+EAST+LOUISIANA+AVENUE+DENVER,CO,80210"
80336001679,CO-0880-8138,803360,CO-0880,PK,5,SOUTHMOOR ELEMENTARY SCHOOL,School District No. 1 in the county of Denver and State of C,Denver County,3755 SOUTH MAGNOLIA WAY,DENVER,CO,80237,,(720)424-3930,11,City: Large,No,No,No,?,485,24.25,20,111,32,"3755 SOUTH MAGNOLIA WAY DENVER,CO,80237",39.648259,-104.910941,"http://www.mapquestapi.com/geocoding/v1/address?key=sz3qLEUYu1cJKXShzSazkXb6QtIOxAfH&location=3755+SOUTH+MAGNOLIA+WAY+DENVER,CO,80237"
80336001839,CO-0880-8132,803360,CO-0880,9,12,SOUTHWEST EARLY COLLEGE,School District No. 1 in the county of Denver and State of C,Denver County,3001 SOUTH FEDERAL BOULEVARD B,DENVER,CO,80236,,(303)935-5473,11,City: Large,Yes,No,Yes,Yes,209,11.05,18.9,134,20,"3001 SOUTH FEDERAL BOULEVARD B DENVER,CO,80236",39.659461,-105.025173,"http://www.mapquestapi.com/geocoding/v1/address?key=sz3qLEUYu1cJKXShzSazkXb6QtIOxAfH&location=3001+SOUTH+FEDERAL+BOULEVARD+B+DENVER,CO,80236"
80336000410,CO-0880-8222,803360,CO-0880,PK,5,STECK ELEMENTARY SCHOOL,School District No. 1 in the county of Denver and State of C,Denver County,450 ALBION STREET,DENVER,CO,80220,4981,(720)424-3870,11,City: Large,No,No,No,?,362,21.74,16.7,38,6,"450 ALBION STREET DENVER,CO,80220",39.723765,-104.939339,"http://www.mapquestapi.com/geocoding/v1/address?key=sz3qLEUYu1cJKXShzSazkXb6QtIOxAfH&location=450+ALBION+STREET+DENVER,CO,80220"
80336000411,CO-0880-8232,803360,CO-0880,PK,5,STEDMAN ELEMENTARY SCHOOL,School District No. 1 in the county of Denver and State of C,Denver County,2940 DEXTER STREET,DENVER,CO,80207,2643,(720)424-3800,11,City: Large,No,No,Yes,Yes,281,17.92,15.7,218,20,"2940 DEXTER STREET DENVER,CO,80207",39.759283,-104.932812,"http://www.mapquestapi.com/geocoding/v1/address?key=sz3qLEUYu1cJKXShzSazkXb6QtIOxAfH&location=2940+DEXTER+STREET+DENVER,CO,80207"
80336000412,CO-0880-8242,803360,CO-0880,KG,5,STEELE ELEMENTARY SCHOOL,School District No. 1 in the county of Denver and State of C,Denver County,320 SOUTH MARION PARKWAY,DENVER,CO,80209,2548,(720)424-3720,11,City: Large,No,No,No,?,477,27.48,17.4,31,5,"320 SOUTH MARION PARKWAY DENVER,CO,80209",39.710207,-104.97221,"http://www.mapquestapi.com/geocoding/v1/address?key=sz3qLEUYu1cJKXShzSazkXb6QtIOxAfH&location=320+SOUTH+MARION+PARKWAY+DENVER,CO,80209"
80336006524,CO-0880-8149,803360,CO-0880,PK,KG,STEPHEN KNIGHT CENTER FOR EARLY EDUCATION,School District No. 1 in the county of Denver and State of C,Denver County,3245 EAST EXPOSITION AVENUE,DENVER,CO,80209,,(720)424-6500,11,City: Large,No,No,No,?,321,18.99,16.9,21,11,"3245 EAST EXPOSITION AVENUE DENVER,CO,80209",39.703855,-104.949027,"http://www.mapquestapi.com/geocoding/v1/address?key=sz3qLEUYu1cJKXShzSazkXb6QtIOxAfH&location=3245+EAST+EXPOSITION+AVENUE+DENVER,CO,80209"
80336006576,CO-0880-8347,803360,CO-0880,9,12,STRIVE PREP - EXCEL,School District No. 1 in the county of Denver and State of C,Denver County,2960 N. SPEER BLVD BUILDING 19,DENVER,CO,80211,,(303)630-0360,11,City: Large,Yes,No,Yes,Yes,294,26.61,11,219,29,"2960 N. SPEER BLVD BUILDING 19 DENVER,CO,80211",39.75842,-105.02132,"http://www.mapquestapi.com/geocoding/v1/address?key=sz3qLEUYu1cJKXShzSazkXb6QtIOxAfH&location=2960+N.+SPEER+BLVD+BUILDING+19+DENVER,CO,80211"
80336002012,CO-0880-8085,803360,CO-0880,6,8,STRIVE PREP - FEDERAL,School District No. 1 in the county of Denver and State of C,Denver County,1825 SOUTH FEDERAL BLVD,DENVER,CO,80219,,(303)573-2017,11,City: Large,Yes,No,Yes,Yes,359,26.61,13.5,291,36,"1825 SOUTH FEDERAL BLVD DENVER,CO,80219",39.684213,-105.025039,"http://www.mapquestapi.com/geocoding/v1/address?key=sz3qLEUYu1cJKXShzSazkXb6QtIOxAfH&location=1825+SOUTH+FEDERAL+BLVD+DENVER,CO,80219"
80336006556,CO-0880-9730,803360,CO-0880,6,8,STRIVE PREP - GVR,School District No. 1 in the county of Denver and State of C,Denver County,4800 TELLURIDE ST,DENVER,CO,80249,,(303)999-2893,11,City: Large,Yes,No,Yes,Yes,379,27.22,13.9,225,56,"4800 TELLURIDE ST DENVER,CO,80249",39.785651,-104.781664,"http://www.mapquestapi.com/geocoding/v1/address?key=sz3qLEUYu1cJKXShzSazkXb6QtIOxAfH&location=4800+TELLURIDE+ST+DENVER,CO,80249"
80336006479,CO-0880-9390,803360,CO-0880,6,8,STRIVE PREP - LAKE,School District No. 1 in the county of Denver and State of C,Denver County,1820 LOWELL BLVD,DENVER,CO,80204,,(303)551-7200,11,City: Large,Yes,No,Yes,Yes,362,31.86,11.4,305,22,"1820 LOWELL BLVD DENVER,CO,80204",39.746403,-105.034603,"http://www.mapquestapi.com/geocoding/v1/address?key=sz3qLEUYu1cJKXShzSazkXb6QtIOxAfH&location=1820+LOWELL+BLVD+DENVER,CO,80204"
80336006537,CO-0880-9735,803360,CO-0880,6,8,STRIVE PREP - MONTBELLO,School District No. 1 in the county of Denver and State of C,Denver County,5000 Crown Blvd.,DENVER,CO,80239,,(303)999-3825,11,City: Large,Yes,No,Yes,Yes,355,28.29,12.5,271,34,"5000 Crown Blvd. DENVER,CO,80239",39.786827,-104.829472,"http://www.mapquestapi.com/geocoding/v1/address?key=sz3qLEUYu1cJKXShzSazkXb6QtIOxAfH&location=5000+Crown+Blvd.+DENVER,CO,80239"
80336006627,CO-0880-8401,803360,CO-0880,KG,3,STRIVE PREP - RUBY HILL,School District No. 1 in the county of Denver and State of C,Denver County,2626 WEST EVANS AVENUE,DENVER,CO,80219,,(720)460-2800,11,City: Large,Yes,No,Yes,Yes,261,24.06,10.8,197,34,"2626 WEST EVANS AVENUE DENVER,CO,80219",39.678662,-105.018775,"http://www.mapquestapi.com/geocoding/v1/address?key=sz3qLEUYu1cJKXShzSazkXb6QtIOxAfH&location=2626+WEST+EVANS+AVENUE+DENVER,CO,80219"
80336006543,CO-0880-9639,803360,CO-0880,9,12,STRIVE PREP - SMART ACADEMY,School District No. 1 in the county of Denver and State of C,Denver County,3201 W. ARIZONA AVE,DENVER,CO,80219,,(303)962-9880,11,City: Large,Yes,No,Yes,Yes,501,33.13,15.1,370,61,"3201 W. ARIZONA AVE DENVER,CO,80219",39.694924,-105.027948,"http://www.mapquestapi.com/geocoding/v1/address?key=sz3qLEUYu1cJKXShzSazkXb6QtIOxAfH&location=3201+W.+ARIZONA+AVE+DENVER,CO,80219"
80336006457,CO-0880-9336,803360,CO-0880,6,8,STRIVE PREP - SUNNYSIDE,School District No. 1 in the county of Denver and State of C,Denver County,4735 Pecos St,DENVER,CO,80211,,(720)723-2000,11,City: Large,Yes,No,Yes,Yes,328,25.4,12.9,259,34,"4735 Pecos St DENVER,CO,80211",39.781738,-105.00652,"http://www.mapquestapi.com/geocoding/v1/address?key=sz3qLEUYu1cJKXShzSazkXb6QtIOxAfH&location=4735+Pecos+St+DENVER,CO,80211"
80336006444,CO-0880-9389,803360,CO-0880,6,8,STRIVE PREP - WESTWOOD,School District No. 1 in the county of Denver and State of C,Denver County,3201 W ARIZONA AVE.,DENVER,CO,80219,,(303)962-9880,11,City: Large,Yes,No,Yes,Yes,365,29.03,12.6,305,32,"3201 W ARIZONA AVE. DENVER,CO,80219",39.694924,-105.027948,"http://www.mapquestapi.com/geocoding/v1/address?key=sz3qLEUYu1cJKXShzSazkXb6QtIOxAfH&location=3201+W+ARIZONA+AVE.+DENVER,CO,80219"
80336006491,CO-0880-8145,803360,CO-0880,6,12,SUMMIT ACADEMY,School District No. 1 in the county of Denver and State of C,Denver County,3111 W. Dartmouth Ave.,DENVER,CO,80236,,(720)424-2400,11,City: Large,No,No,Yes,Yes,214,23.54,9.1,162,15,"3111 W. Dartmouth Ave. DENVER,CO,80236",39.660352,-105.032793,"http://www.mapquestapi.com/geocoding/v1/address?key=sz3qLEUYu1cJKXShzSazkXb6QtIOxAfH&location=3111+W.+Dartmouth+Ave.+DENVER,CO,80236"
80336000414,CO-0880-8422,803360,CO-0880,PK,5,SWANSEA ELEMENTARY SCHOOL,School District No. 1 in the county of Denver and State of C,Denver County,4650 COLUMBINE STREET,DENVER,CO,80216,2833,(720)424-3630,11,City: Large,No,No,Yes,Yes,526,35.5,14.8,476,25,"4650 COLUMBINE STREET DENVER,CO,80216",39.78104,-104.957031,"http://www.mapquestapi.com/geocoding/v1/address?key=sz3qLEUYu1cJKXShzSazkXb6QtIOxAfH&location=4650+COLUMBINE+STREET+DENVER,CO,80216"
80336006518,CO-0880-8453,803360,CO-0880,PK,5,SWIGERT INTERNATIONAL SCHOOL,School District No. 1 in the county of Denver and State of C,Denver County,3480 SYRACUSE STREET,DENVER,CO,80238,,(720)424-4800,11,City: Large,No,No,No,?,680,37.89,17.9,38,6,"3480 SYRACUSE STREET DENVER,CO,80238",39.76411,-104.898895,"http://www.mapquestapi.com/geocoding/v1/address?key=sz3qLEUYu1cJKXShzSazkXb6QtIOxAfH&location=3480+SYRACUSE+STREET+DENVER,CO,80238"
80336000415,CO-0880-8776,803360,CO-0880,PK,5,TELLER ELEMENTARY SCHOOL,School District No. 1 in the county of Denver and State of C,Denver County,1150 GARFIELD STREET,DENVER,CO,80206,3513,(720)424-3560,11,City: Large,No,No,No,?,484,30.48,15.9,121,19,"1150 GARFIELD STREET DENVER,CO,80206",39.734381,-104.944002,"http://www.mapquestapi.com/geocoding/v1/address?key=sz3qLEUYu1cJKXShzSazkXb6QtIOxAfH&location=1150+GARFIELD+STREET+DENVER,CO,80206"
80336000417,CO-0880-8822,803360,CO-0880,9,12,THOMAS JEFFERSON HIGH SCHOOL,School District No. 1 in the county of Denver and State of C,Denver County,3950 SOUTH HOLLY STREET,DENVER,CO,80237,1117,(720)423-7000,11,City: Large,No,No,No,?,1069,62.08,17.2,458,92,"3950 SOUTH HOLLY STREET DENVER,CO,80237",39.647216,-104.922521,"http://www.mapquestapi.com/geocoding/v1/address?key=sz3qLEUYu1cJKXShzSazkXb6QtIOxAfH&location=3950+SOUTH+HOLLY+STREET+DENVER,CO,80237"
80336000418,CO-0880-8888,803360,CO-0880,PK,5,TRAYLOR ACADEMY,School District No. 1 in the county of Denver and State of C,Denver County,2900 SOUTH IVAN WAY,DENVER,CO,80227,3836,(720)424-3480,11,City: Large,No,No,Yes,Yes,518,34.49,15,322,72,"2900 SOUTH IVAN WAY DENVER,CO,80227",39.660434,-105.062922,"http://www.mapquestapi.com/geocoding/v1/address?key=sz3qLEUYu1cJKXShzSazkXb6QtIOxAfH&location=2900+SOUTH+IVAN+WAY+DENVER,CO,80227"
80336006389,CO-0880-8909,803360,CO-0880,PK,5,TREVISTA AT HORACE MANN,School District No. 1 in the county of Denver and State of C,Denver County,4130 NAVAJO STREET,DENVER,CO,80211,,(720)423-9800,11,City: Large,No,No,Yes,Yes,320,28.74,11.1,288,19,"4130 NAVAJO STREET DENVER,CO,80211",39.773397,-105.004198,"http://www.mapquestapi.com/geocoding/v1/address?key=sz3qLEUYu1cJKXShzSazkXb6QtIOxAfH&location=4130+NAVAJO+STREET+DENVER,CO,80211"
80336000419,CO-0880-8970,803360,CO-0880,KG,5,UNIVERSITY PARK ELEMENTARY SCHOOL,School District No. 1 in the county of Denver and State of C,Denver County,2300 SOUTH ST PAUL STREET,DENVER,CO,80210,5536,(720)424-3410,11,City: Large,No,No,No,?,423,28.1,15.1,91,15,"2300 SOUTH ST PAUL STREET DENVER,CO,80210",39.674629,-104.950834,"http://www.mapquestapi.com/geocoding/v1/address?key=sz3qLEUYu1cJKXShzSazkXb6QtIOxAfH&location=2300+SOUTH+ST+PAUL+STREET+DENVER,CO,80210"
80336006517,CO-0880-8945,803360,CO-0880,KG,5,UNIVERSITY PREP - ARAPAHOE ST.,School District No. 1 in the county of Denver and State of C,Denver County,2409 ARAPAHOE STREET,DENVER,CO,80205,,(303)292-0463,11,City: Large,Yes,No,Yes,Yes,363,37.04,9.8,232,65,"2409 ARAPAHOE STREET DENVER,CO,80205",39.755859,-104.985338,"http://www.mapquestapi.com/geocoding/v1/address?key=sz3qLEUYu1cJKXShzSazkXb6QtIOxAfH&location=2409+ARAPAHOE+STREET+DENVER,CO,80205"
80336001576,CO-0880-6957,803360,CO-0880,PK,5,UNIVERSITY PREP - STEELE ST.,School District No. 1 in the county of Denver and State of C,Denver County,3230 EAST 38TH AVENUE,DENVER,CO,80205,3726,(303)329-8412,11,City: Large,Yes,No,Yes,Yes,320,26.68,12,256,31,"3230 EAST 38TH AVENUE DENVER,CO,80205",39.76922,-104.949278,"http://www.mapquestapi.com/geocoding/v1/address?key=sz3qLEUYu1cJKXShzSazkXb6QtIOxAfH&location=3230+EAST+38TH+AVENUE+DENVER,CO,80205"
80336000420,CO-0880-0408,803360,CO-0880,PK,5,VALDEZ ELEMENTARY SCHOOL,School District No. 1 in the county of Denver and State of C,Denver County,2525 WEST 29 AVENUE,DENVER,CO,80211,3711,(720)424-3310,11,City: Large,No,No,No,?,369,26,14.2,142,34,"2525 WEST 29 AVENUE DENVER,CO,80211",39.758442,-105.018668,"http://www.mapquestapi.com/geocoding/v1/address?key=sz3qLEUYu1cJKXShzSazkXb6QtIOxAfH&location=2525+WEST+29+AVENUE+DENVER,CO,80211"
80336000421,CO-0880-9050,803360,CO-0880,PK,5,VALVERDE ELEMENTARY SCHOOL,School District No. 1 in the county of Denver and State of C,Denver County,2030 WEST ALAMEDA AVENUE,DENVER,CO,80223,1923,(720)424-3250,11,City: Large,No,No,Yes,Yes,309,24,12.9,266,34,"2030 WEST ALAMEDA AVENUE DENVER,CO,80223",39.71119,-105.01166,"http://www.mapquestapi.com/geocoding/v1/address?key=sz3qLEUYu1cJKXShzSazkXb6QtIOxAfH&location=2030+WEST+ALAMEDA+AVENUE+DENVER,CO,80223"
80234006322,CO-0180-9056,802340,CO-0180,KG,8,VANGUARD CLASSICAL SCHOOL - WEST,Aurora Joint District No. 28 of the counties of Adams and A,Denver County,801 YOSEMITE STREET,DENVER,CO,80230,,(303)691-2384,11,City: Large,Yes,No,No,?,494,40.99,12.1,291,45,"801 YOSEMITE STREET DENVER,CO,80230",39.729789,-104.888004,"http://www.mapquestapi.com/geocoding/v1/address?key=sz3qLEUYu1cJKXShzSazkXb6QtIOxAfH&location=801+YOSEMITE+STREET+DENVER,CO,80230"
80336006441,CO-0880-2755,803360,CO-0880,9,12,VENTURE PREP HIGH SCHOOL,School District No. 1 in the county of Denver and State of C,Denver County,2540 HOLLY STREET,DENVER,CO,80207,,(303)893-0805,11,City: Large,Yes,No,Yes,Yes,261,19.63,13.3,195,23,"2540 HOLLY STREET DENVER,CO,80207",39.754171,-104.9223,"http://www.mapquestapi.com/geocoding/v1/address?key=sz3qLEUYu1cJKXShzSazkXb6QtIOxAfH&location=2540+HOLLY+STREET+DENVER,CO,80207"
80336006514,CO-0880-8995,803360,CO-0880,6,12,VISTA ACADEMY,School District No. 1 in the county of Denver and State of C,Denver County,4800 TELLURIDE STREET,DENVER,CO,80249,,(720)423-7600,11,City: Large,No,No,Yes,Yes,285,20.04,14.2,170,42,"4800 TELLURIDE STREET DENVER,CO,80249",39.785651,-104.781664,"http://www.mapquestapi.com/geocoding/v1/address?key=sz3qLEUYu1cJKXShzSazkXb6QtIOxAfH&location=4800+TELLURIDE+STREET+DENVER,CO,80249"
80336006593,CO-0880-9348,803360,CO-0880,9,12,WEST CAREER ACADEMY,School District No. 1 in the county of Denver and State of C,Denver County,951 ELATI STREET,DENVER,CO,80204,,(720)423-5390,11,City: Large,No,No,Yes,Yes,61,7.02,8.7,35,7,"951 ELATI STREET DENVER,CO,80204",39.731817,-104.994082,"http://www.mapquestapi.com/geocoding/v1/address?key=sz3qLEUYu1cJKXShzSazkXb6QtIOxAfH&location=951+ELATI+STREET+DENVER,CO,80204"
80336006551,CO-0880-9693,803360,CO-0880,6,12,WEST EARLY COLLEGE,School District No. 1 in the county of Denver and State of C,Denver County,951 ELATI ST,DENVER,CO,80204,,(720)423-5300,11,City: Large,No,No,Yes,Yes,746,47.06,15.9,643,60,"951 ELATI ST DENVER,CO,80204",39.731817,-104.994082,"http://www.mapquestapi.com/geocoding/v1/address?key=sz3qLEUYu1cJKXShzSazkXb6QtIOxAfH&location=951+ELATI+ST+DENVER,CO,80204"
80336006547,CO-0880-9702,803360,CO-0880,6,12,WEST LEADERSHIP ACADEMY,School District No. 1 in the county of Denver and State of C,Denver County,951 ELATI ST,DENVER,CO,80204,,(720)423-5460,11,City: Large,No,No,Yes,Yes,690,51.31,13.4,598,60,"951 ELATI ST DENVER,CO,80204",39.731817,-104.994082,"http://www.mapquestapi.com/geocoding/v1/address?key=sz3qLEUYu1cJKXShzSazkXb6QtIOxAfH&location=951+ELATI+ST+DENVER,CO,80204"
80336001957,CO-0880-9425,803360,CO-0880,PK,5,WESTERLY CREEK ELEMENTARY,School District No. 1 in the county of Denver and State of C,Denver County,8800 EAST 28TH AVENUE,DENVER,CO,80238,,(720)424-3160,11,City: Large,No,No,No,?,699,42.49,16.5,69,17,"8800 EAST 28TH AVENUE DENVER,CO,80238",39.7564,-104.885548,"http://www.mapquestapi.com/geocoding/v1/address?key=sz3qLEUYu1cJKXShzSazkXb6QtIOxAfH&location=8800+EAST+28TH+AVENUE+DENVER,CO,80238"
80336000426,CO-0880-9548,803360,CO-0880,PK,8,WHITTIER K-8 SCHOOL,School District No. 1 in the county of Denver and State of C,Denver County,2480 DOWNING STREET,DENVER,CO,80205,5239,(720)424-3040,11,City: Large,No,No,Yes,Yes,307,21.17,14.5,251,25,"2480 DOWNING STREET DENVER,CO,80205",39.752589,-104.973356,"http://www.mapquestapi.com/geocoding/v1/address?key=sz3qLEUYu1cJKXShzSazkXb6QtIOxAfH&location=2480+DOWNING+STREET+DENVER,CO,80205"
80336006332,CO-0880-9623,803360,CO-0880,PK,8,WILLIAM (BILL) ROBERTS K-8 SCHOOL,School District No. 1 in the county of Denver and State of C,Denver County,2100 AKRON WAY,DENVER,CO,80238,,(720)424-2640,11,City: Large,No,No,No,?,865,57.55,15,133,25,"2100 AKRON WAY DENVER,CO,80238",39.749055,-104.883227,"http://www.mapquestapi.com/geocoding/v1/address?key=sz3qLEUYu1cJKXShzSazkXb6QtIOxAfH&location=2100+AKRON+WAY+DENVER,CO,80238"
80336001637,CO-0880-9739,803360,CO-0880,KG,8,WYATT ACADEMY,School District No. 1 in the county of Denver and State of C,Denver County,3620 FRANKLIN STREET,DENVER,CO,80205,3325,(303)292-5515,11,City: Large,Yes,No,Yes,Yes,513,43.28,11.9,456,31,"3620 FRANKLIN STREET DENVER,CO,80205",39.767552,-104.968415,"http://www.mapquestapi.com/geocoding/v1/address?key=sz3qLEUYu1cJKXShzSazkXb6QtIOxAfH&location=3620+FRANKLIN+STREET+DENVER,CO,80205"
